{"type":"FeatureCollection","name":"Três comunidades da Zona Sul do Rio de Janeiro","source":"The State of Brazilian Favelas V1, derivado dos polígonos oficiais do Censo 2022/IBGE","sourceUrl":"https://data.mendeley.com/datasets/x959s4g493/1","sourceDOI":"10.17632/x959s4g493.1","license":"CC BY 4.0","generatedAt":"2026-08-30T02:52:29.615985+00:00","features":[{"type":"Feature","properties":{"name":"Santa Marta","center":[-43.194298,-22.947244],"sourceNames":["Morro Santa Marta"],"source":"Polígonos oficiais de FCU do Censo 2022/IBGE"},"geometry":{"type":"Polygon","coordinates":[[[-43.193227,-22.948463],[-43.193241,-22.948469],[-43.193273,-22.948511],[-43.193394,-22.948573],[-43.193323,-22.948693],[-43.193593,-22.94885],[-43.193655,-22.94882],[-43.193665,-22.948826],[-43.193631,-22.948878],[-43.19364,-22.948892],[-43.193841,-22.94902],[-43.193934,-22.94898],[-43.19416,-22.949209],[-43.194383,-22.94887],[-43.194474,-22.948892],[-43.194494,-22.94886],[-43.194415,-22.948807],[-43.194483,-22.94869],[-43.194608,-22.948739],[-43.194636,-22.948658],[-43.194525,-22.948616],[-43.194726,-22.948323],[-43.194785,-22.94818],[-43.195014,-22.947826],[-43.195435,-22.947032],[-43.195434,-22.946824],[-43.195424,-22.946821],[-43.195398,-22.94675],[-43.19507,-22.94646],[-43.194897,-22.946321],[-43.194858,-22.946205],[-43.194863,-22.946198],[-43.195112,-22.946198],[-43.195117,-22.946123],[-43.194913,-22.946024],[-43.194853,-22.945864],[-43.194822,-22.945847],[-43.194805,-22.945768],[-43.19478,-22.94572],[-43.194741,-22.9457],[-43.194623,-22.945764],[-43.194595,-22.945801],[-43.194442,-22.945895],[-43.194189,-22.946032],[-43.194038,-22.945854],[-43.193779,-22.945985],[-43.19384,-22.946126],[-43.193668,-22.946176],[-43.19366,-22.946203],[-43.19377,-22.9462],[-43.193711,-22.946398],[-43.193477,-22.946823],[-43.193172,-22.947456],[-43.192967,-22.947928],[-43.192909,-22.948035],[-43.192735,-22.948259],[-43.192881,-22.94832],[-43.193208,-22.948492],[-43.193227,-22.948463]]]}},{"type":"Feature","properties":{"name":"Complexo Cantagalo–Pavão–Pavãozinho","center":[-43.19766,-22.981031],"sourceNames":["Morro do Cantagalo","Pavão-Pavãozinho"],"source":"Polígonos oficiais de FCU do Censo 2022/IBGE"},"geometry":{"type":"Polygon","coordinates":[[[-43.196994,-22.982647],[-43.196996,-22.982667],[-43.197215,-22.98266],[-43.197413,-22.982981],[-43.198076,-22.982976],[-43.198131,-22.98291],[-43.198238,-22.9829],[-43.198302,-22.982956],[-43.198339,-22.982966],[-43.198379,-22.982936],[-43.19829,-22.983113],[-43.198591,-22.983107],[-43.198618,-22.983474],[-43.198656,-22.983473],[-43.19865,-22.983106],[-43.198796,-22.983096],[-43.198844,-22.982959],[-43.19885,-22.98281],[-43.198817,-22.982441],[-43.198826,-22.982278],[-43.198882,-22.982182],[-43.198901,-22.982073],[-43.198856,-22.981923],[-43.198747,-22.981821],[-43.198649,-22.981767],[-43.198616,-22.981586],[-43.198609,-22.981327],[-43.198646,-22.981078],[-43.19859,-22.980837],[-43.198277,-22.980882],[-43.198003,-22.980884],[-43.197988,-22.980781],[-43.198097,-22.98076],[-43.198074,-22.980662],[-43.198002,-22.980569],[-43.197919,-22.980287],[-43.198229,-22.980232],[-43.198335,-22.980184],[-43.198424,-22.98016],[-43.198493,-22.98028],[-43.198581,-22.980235],[-43.198536,-22.980036],[-43.198369,-22.979577],[-43.198197,-22.979634],[-43.198233,-22.979753],[-43.197984,-22.979781],[-43.197455,-22.979969],[-43.197459,-22.980062],[-43.196931,-22.980125],[-43.19691,-22.980125],[-43.196746,-22.980052],[-43.196722,-22.979938],[-43.196685,-22.979914],[-43.196613,-22.979892],[-43.196539,-22.979905],[-43.196527,-22.979928],[-43.196483,-22.979947],[-43.196436,-22.979951],[-43.196354,-22.979939],[-43.196282,-22.979947],[-43.196118,-22.979864],[-43.196012,-22.979831],[-43.19594,-22.979816],[-43.195703,-22.979795],[-43.195475,-22.979717],[-43.195205,-22.979691],[-43.195063,-22.979721],[-43.194797,-22.979736],[-43.194305,-22.979796],[-43.194321,-22.979598],[-43.19434,-22.979615],[-43.194602,-22.979634],[-43.194623,-22.979559],[-43.194669,-22.979534],[-43.194657,-22.979474],[-43.194651,-22.979352],[-43.194681,-22.979313],[-43.194847,-22.979356],[-43.194955,-22.979365],[-43.195046,-22.979319],[-43.195192,-22.979205],[-43.195221,-22.979137],[-43.195205,-22.979091],[-43.195107,-22.979025],[-43.194905,-22.978932],[-43.194868,-22.978801],[-43.194771,-22.978725],[-43.194616,-22.978632],[-43.194522,-22.978632],[-43.194449,-22.978611],[-43.194389,-22.978628],[-43.194337,-22.978621],[-43.193355,-22.979018],[-43.193024,-22.979122],[-43.192834,-22.979266],[-43.192801,-22.979307],[-43.192769,-22.979322],[-43.192057,-22.979488],[-43.19189,-22.979534],[-43.191785,-22.979585],[-43.191714,-22.979597],[-43.191728,-22.979637],[-43.191733,-22.979768],[-43.191504,-22.979859],[-43.191523,-22.980106],[-43.191574,-22.980107],[-43.191584,-22.980224],[-43.191746,-22.980294],[-43.191774,-22.980395],[-43.192152,-22.980284],[-43.192313,-22.980201],[-43.192479,-22.980301],[-43.192474,-22.980364],[-43.192669,-22.980512],[-43.192708,-22.980533],[-43.192896,-22.980594],[-43.192906,-22.980547],[-43.192938,-22.980475],[-43.193396,-22.980591],[-43.193388,-22.980629],[-43.193935,-22.980762],[-43.193962,-22.98067],[-43.194161,-22.980713],[-43.194174,-22.980709],[-43.194533,-22.980773],[-43.19506,-22.980783],[-43.195058,-22.98086],[-43.195192,-22.980864],[-43.195195,-22.980748],[-43.195601,-22.98073],[-43.195915,-22.98076],[-43.19591,-22.980831],[-43.19619,-22.980869],[-43.196266,-22.980871],[-43.196572,-22.980938],[-43.19667,-22.980984],[-43.196721,-22.981136],[-43.196689,-22.981276],[-43.196605,-22.981388],[-43.196515,-22.98171],[-43.196342,-22.98221],[-43.196054,-22.982131],[-43.196045,-22.982183],[-43.196066,-22.982283],[-43.196334,-22.982356],[-43.196228,-22.982653],[-43.196702,-22.982757],[-43.196809,-22.982664],[-43.196994,-22.982647]]]}},{"type":"Feature","properties":{"name":"Complexo Babilônia–Chapéu Mangueira","center":[-43.167651,-22.960445],"sourceNames":["Babilônia","Chapéu Mangueira"],"source":"Polígonos oficiais de FCU do Censo 2022/IBGE"},"geometry":{"type":"Polygon","coordinates":[[[-43.165986,-22.960714],[-43.166145,-22.960872],[-43.166132,-22.960939],[-43.166255,-22.960959],[-43.166441,-22.961113],[-43.166831,-22.961258],[-43.167097,-22.96124],[-43.167058,-22.961448],[-43.167191,-22.961472],[-43.167276,-22.961023],[-43.167483,-22.96095],[-43.16766,-22.960833],[-43.167864,-22.960781],[-43.168091,-22.960795],[-43.168357,-22.960903],[-43.168577,-22.96087],[-43.168957,-22.960865],[-43.169164,-22.960593],[-43.169298,-22.960324],[-43.169391,-22.960294],[-43.169504,-22.960282],[-43.16974,-22.960274],[-43.16993,-22.960248],[-43.169945,-22.960041],[-43.169961,-22.960019],[-43.16996,-22.959909],[-43.170134,-22.959902],[-43.170147,-22.959817],[-43.170188,-22.95979],[-43.170259,-22.959835],[-43.170257,-22.959871],[-43.1706,-22.959913],[-43.170571,-22.960049],[-43.170807,-22.960119],[-43.170858,-22.960161],[-43.170887,-22.960234],[-43.170875,-22.960304],[-43.170916,-22.960333],[-43.171052,-22.960387],[-43.171019,-22.960533],[-43.170846,-22.960782],[-43.170825,-22.960905],[-43.170735,-22.960992],[-43.17064,-22.960954],[-43.170657,-22.960899],[-43.170603,-22.960834],[-43.170611,-22.960821],[-43.17053,-22.960748],[-43.170421,-22.960744],[-43.170266,-22.960869],[-43.17009,-22.96124],[-43.170284,-22.961322],[-43.170319,-22.961225],[-43.170445,-22.961219],[-43.170565,-22.961285],[-43.170608,-22.961403],[-43.17074,-22.961493],[-43.170899,-22.961483],[-43.171113,-22.96158],[-43.171236,-22.961881],[-43.171225,-22.962222],[-43.171251,-22.9624],[-43.171226,-22.962458],[-43.171612,-22.962628],[-43.171742,-22.962656],[-43.171825,-22.962568],[-43.172034,-22.962525],[-43.172267,-22.962495],[-43.172361,-22.96251],[-43.172277,-22.962267],[-43.172248,-22.961809],[-43.172282,-22.961731],[-43.172358,-22.961394],[-43.17238,-22.961338],[-43.172332,-22.961216],[-43.172544,-22.960547],[-43.172718,-22.960478],[-43.172813,-22.960247],[-43.173055,-22.960249],[-43.173228,-22.960374],[-43.173324,-22.960413],[-43.173384,-22.960392],[-43.173435,-22.960206],[-43.173266,-22.959814],[-43.173246,-22.959578],[-43.173105,-22.959423],[-43.172866,-22.959298],[-43.171994,-22.95893],[-43.171795,-22.958932],[-43.171697,-22.958988],[-43.171621,-22.959086],[-43.171536,-22.959087],[-43.170577,-22.958983],[-43.170296,-22.958943],[-43.169947,-22.959048],[-43.169676,-22.959071],[-43.169663,-22.959083],[-43.16922,-22.959098],[-43.169173,-22.958899],[-43.169172,-22.958651],[-43.169121,-22.958611],[-43.168578,-22.958415],[-43.168364,-22.958271],[-43.168154,-22.958286],[-43.168089,-22.958427],[-43.168274,-22.958771],[-43.16848,-22.95905],[-43.168681,-22.959235],[-43.168805,-22.959454],[-43.168987,-22.959597],[-43.169083,-22.959625],[-43.168971,-22.95989],[-43.168722,-22.959802],[-43.168241,-22.959724],[-43.167698,-22.95979],[-43.167502,-22.959844],[-43.166871,-22.960094],[-43.165821,-22.960551],[-43.165823,-22.960696],[-43.165986,-22.960686],[-43.165986,-22.960714]]]}}]}
