{"type":"FeatureCollection","name":"Mais três comunidades da Zona Sul do Rio de Janeiro","source":"The State of Brazilian Favelas V1, derivado dos polígonos oficiais do Censo 2022/IBGE","sourceUrl":"https://data.mendeley.com/datasets/x959s4g493/1","sourceDOI":"10.17632/x959s4g493.1","license":"CC BY 4.0","generatedAt":"2026-08-30T04:13:03.263589+00:00","features":[{"type":"Feature","properties":{"name":"Tavares Bastos","center":[-43.182839,-22.927263],"sourceNames":["Tavares Bastos"],"source":"Polígonos oficiais de FCU do Censo 2022/IBGE"},"geometry":{"type":"Polygon","coordinates":[[[-43.182991,-22.928588],[-43.183648,-22.928601],[-43.183671,-22.928199],[-43.184259,-22.928058],[-43.184422,-22.928087],[-43.184456,-22.92782],[-43.184355,-22.927748],[-43.184288,-22.927724],[-43.184284,-22.927638],[-43.184161,-22.927569],[-43.184218,-22.927488],[-43.184136,-22.927446],[-43.184066,-22.927494],[-43.183927,-22.927486],[-43.183812,-22.927461],[-43.183662,-22.92736],[-43.183605,-22.927243],[-43.183358,-22.927149],[-43.183239,-22.927023],[-43.183204,-22.926913],[-43.183078,-22.926917],[-43.182988,-22.92686],[-43.182582,-22.926432],[-43.182564,-22.926035],[-43.182451,-22.926042],[-43.182281,-22.925992],[-43.181997,-22.925927],[-43.181813,-22.925929],[-43.181841,-22.926099],[-43.181814,-22.926231],[-43.181838,-22.926502],[-43.181932,-22.926851],[-43.181943,-22.927066],[-43.181986,-22.927188],[-43.182083,-22.927282],[-43.182203,-22.927379],[-43.182282,-22.927419],[-43.182308,-22.927481],[-43.182328,-22.927602],[-43.182335,-22.927728],[-43.182322,-22.927788],[-43.182285,-22.927843],[-43.182097,-22.927944],[-43.182061,-22.927995],[-43.182012,-22.928086],[-43.181858,-22.928443],[-43.181839,-22.928514],[-43.181848,-22.928564],[-43.181875,-22.928582],[-43.181947,-22.928592],[-43.182357,-22.928594],[-43.182939,-22.928579],[-43.182991,-22.928588]]]}},{"type":"Feature","properties":{"name":"Morro Azul","center":[-43.179809,-22.938138],"sourceNames":["Morro Azul"],"source":"Polígonos oficiais de FCU do Censo 2022/IBGE"},"geometry":{"type":"Polygon","coordinates":[[[-43.179384,-22.938167],[-43.179534,-22.93851],[-43.179635,-22.938494],[-43.179724,-22.938619],[-43.17976,-22.938686],[-43.180041,-22.938819],[-43.180242,-22.939213],[-43.180561,-22.939126],[-43.180961,-22.939304],[-43.181047,-22.939141],[-43.181035,-22.939093],[-43.180969,-22.939013],[-43.181059,-22.93898],[-43.181108,-22.938977],[-43.181169,-22.939001],[-43.181337,-22.938886],[-43.181393,-22.938768],[-43.181429,-22.938662],[-43.181451,-22.938554],[-43.181336,-22.938496],[-43.181089,-22.938507],[-43.181034,-22.938644],[-43.180532,-22.938472],[-43.180357,-22.938275],[-43.180311,-22.938174],[-43.180404,-22.938049],[-43.180168,-22.937836],[-43.180209,-22.937751],[-43.180197,-22.937655],[-43.180143,-22.937628],[-43.180185,-22.937523],[-43.180096,-22.937485],[-43.179941,-22.937788],[-43.179812,-22.937628],[-43.179624,-22.937347],[-43.1794,-22.937108],[-43.179219,-22.936984],[-43.179088,-22.93756],[-43.178942,-22.93781],[-43.178853,-22.937843],[-43.178899,-22.93804],[-43.179021,-22.938014],[-43.179086,-22.938171],[-43.179273,-22.93811],[-43.179294,-22.93819],[-43.179384,-22.938167]]]}},{"type":"Feature","properties":{"name":"Pereira da Silva","center":[-43.192574,-22.93026],"sourceNames":["Vila Pereira da Silva"],"source":"Polígonos oficiais de FCU do Censo 2022/IBGE"},"geometry":{"type":"Polygon","coordinates":[[[-43.191433,-22.930182],[-43.19151,-22.93029],[-43.191445,-22.930373],[-43.191358,-22.930369],[-43.191274,-22.930444],[-43.191199,-22.930713],[-43.19133,-22.930729],[-43.191221,-22.931115],[-43.191425,-22.931147],[-43.191433,-22.931296],[-43.191544,-22.931278],[-43.191719,-22.931305],[-43.191911,-22.931309],[-43.192213,-22.931363],[-43.192261,-22.931575],[-43.192463,-22.931583],[-43.19272,-22.931474],[-43.192611,-22.931292],[-43.192833,-22.931181],[-43.193032,-22.931161],[-43.193163,-22.93117],[-43.193228,-22.931142],[-43.193232,-22.931091],[-43.1932,-22.931021],[-43.193246,-22.930985],[-43.193405,-22.931],[-43.193536,-22.931078],[-43.193695,-22.931004],[-43.193822,-22.930896],[-43.193714,-22.930724],[-43.193738,-22.930439],[-43.193647,-22.930229],[-43.19361,-22.929938],[-43.193565,-22.929757],[-43.19363,-22.929663],[-43.193636,-22.929603],[-43.19367,-22.929537],[-43.193711,-22.929536],[-43.193771,-22.929462],[-43.193784,-22.929326],[-43.193668,-22.929227],[-43.193554,-22.929147],[-43.193386,-22.929115],[-43.193198,-22.929487],[-43.193126,-22.929574],[-43.192413,-22.928952],[-43.192309,-22.928938],[-43.192043,-22.929036],[-43.191959,-22.929115],[-43.191596,-22.929192],[-43.191545,-22.929291],[-43.191433,-22.929273],[-43.191396,-22.929329],[-43.191444,-22.929429],[-43.191656,-22.929486],[-43.191723,-22.929535],[-43.191695,-22.929717],[-43.191485,-22.929824],[-43.191392,-22.929962],[-43.191433,-22.930182]]]}}]}
