{
  "type": "FeatureCollection",
  "features": [
    {
      "type": "Feature",
      "id": 471,
      "geometry": {
        "type": "Polygon",
        "coordinates": [
          [
            [
              -43.33356544574559,
              -22.970262062261845
            ],
            [
              -43.33351329141022,
              -22.97024210584275
            ],
            [
              -43.33343679341804,
              -22.97029012210092
            ],
            [
              -43.333409224178986,
              -22.970252338138383
            ],
            [
              -43.333301051574814,
              -22.970268249115847
            ],
            [
              -43.333180556622935,
              -22.9703338308148
            ],
            [
              -43.333112829698365,
              -22.970196844673897
            ],
            [
              -43.3330395185991,
              -22.970206950420415
            ],
            [
              -43.33296515416955,
              -22.970106455632635
            ],
            [
              -43.33295325211124,
              -22.970037893219015
            ],
            [
              -43.33301390451632,
              -22.97001279419424
            ],
            [
              -43.33299191605237,
              -22.969940179246343
            ],
            [
              -43.332950033248835,
              -22.96992883769036
            ],
            [
              -43.332882157759336,
              -22.969782370267627
            ],
            [
              -43.332870571861854,
              -22.96973948033203
            ],
            [
              -43.33281823734853,
              -22.969709670098105
            ],
            [
              -43.33277254300812,
              -22.969648259562064
            ],
            [
              -43.33281534871271,
              -22.969629595183132
            ],
            [
              -43.33289424644746,
              -22.96973258866682
            ],
            [
              -43.332969717767305,
              -22.969710616639226
            ],
            [
              -43.33298521475768,
              -22.969750151214974
            ],
            [
              -43.33312764847013,
              -22.96970863895917
            ],
            [
              -43.333269031141405,
              -22.96964069138185
            ],
            [
              -43.33342813889857,
              -22.969548522468962
            ],
            [
              -43.33357217597568,
              -22.969469994926335
            ],
            [
              -43.333712048650376,
              -22.969488026014353
            ],
            [
              -43.3338357214008,
              -22.969485660401382
            ],
            [
              -43.33386475603693,
              -22.969431669660455
            ],
            [
              -43.333976451013676,
              -22.969481843903818
            ],
            [
              -43.33425392868306,
              -22.96949255180697
            ],
            [
              -43.334333855538446,
              -22.96958288250378
            ],
            [
              -43.334353390587324,
              -22.96959543831248
            ],
            [
              -43.33445207017079,
              -22.96957562847876
            ],
            [
              -43.33455236123867,
              -22.969654402287762
            ],
            [
              -43.334679501342954,
              -22.969684984337484
            ],
            [
              -43.3348058654155,
              -22.969724065159014
            ],
            [
              -43.33491801616312,
              -22.96992002431907
            ],
            [
              -43.335016720704374,
              -22.97013813924539
            ],
            [
              -43.334948050824586,
              -22.970160447396847
            ],
            [
              -43.335017097018145,
              -22.97029211761797
            ],
            [
              -43.33491660028027,
              -22.97032647358341
            ],
            [
              -43.33494237178366,
              -22.97035603844405
            ],
            [
              -43.33503838579589,
              -22.970450042667256
            ],
            [
              -43.33508569982942,
              -22.97049884273938
            ],
            [
              -43.33513037125668,
              -22.970502071760723
            ],
            [
              -43.33519133729112,
              -22.970635194995392
            ],
            [
              -43.335228492580825,
              -22.97076530831638
            ],
            [
              -43.335197775949446,
              -22.9708395079521
            ],
            [
              -43.335217692019825,
              -22.970916999195556
            ],
            [
              -43.33525852967194,
              -22.971016254073458
            ],
            [
              -43.33524885828032,
              -22.971173853929653
            ],
            [
              -43.335163916238784,
              -22.97117035999842
            ],
            [
              -43.33512961083104,
              -22.971294202208878
            ],
            [
              -43.335090098663535,
              -22.971494756113373
            ],
            [
              -43.335032993477355,
              -22.97163819587643
            ],
            [
              -43.33498932961008,
              -22.9718568661785
            ],
            [
              -43.33513504043128,
              -22.97185839676183
            ],
            [
              -43.33526174520652,
              -22.97185972759195
            ],
            [
              -43.33517032072649,
              -22.9720817109262
            ],
            [
              -43.33508136609349,
              -22.972069273108456
            ],
            [
              -43.3350121740103,
              -22.972120988191808
            ],
            [
              -43.33481752854966,
              -22.972258892013407
            ],
            [
              -43.334785596646334,
              -22.972127139315592
            ],
            [
              -43.33476375082135,
              -22.972014608090227
            ],
            [
              -43.33477224574753,
              -22.971986583530697
            ],
            [
              -43.33468327767763,
              -22.971960209010078
            ],
            [
              -43.33462413055463,
              -22.972037034862023
            ],
            [
              -43.33454611151802,
              -22.972086392964986
            ],
            [
              -43.33447635941732,
              -22.972092827774595
            ],
            [
              -43.33440288246589,
              -22.971982143515124
            ],
            [
              -43.334415990547285,
              -22.971880118449864
            ],
            [
              -43.33436264796423,
              -22.971854717761403
            ],
            [
              -43.33428471835995,
              -22.97188977910381
            ],
            [
              -43.33419225924515,
              -22.971894327939996
            ],
            [
              -43.33409519113292,
              -22.971788425772353
            ],
            [
              -43.334075918384464,
              -22.971658500193453
            ],
            [
              -43.33402159185976,
              -22.971470245558766
            ],
            [
              -43.33398741672916,
              -22.97134016333564
            ],
            [
              -43.33395608743067,
              -22.971221149373438
            ],
            [
              -43.333912193960494,
              -22.971154447039424
            ],
            [
              -43.333831825907026,
              -22.97114532190328
            ],
            [
              -43.3337776040156,
              -22.971191673283556
            ],
            [
              -43.33371362969718,
              -22.97130416398168
            ],
            [
              -43.33366184640612,
              -22.97139470158974
            ],
            [
              -43.33361341635426,
              -22.971454913767047
            ],
            [
              -43.33351384577201,
              -22.971553228351926
            ],
            [
              -43.333351584334686,
              -22.971659164932703
            ],
            [
              -43.33311495034609,
              -22.971753278151475
            ],
            [
              -43.332959597452,
              -22.97178200586336
            ],
            [
              -43.33283120388471,
              -22.971799975930068
            ],
            [
              -43.33267612177274,
              -22.971806624993484
            ],
            [
              -43.33252124380497,
              -22.971796715368914
            ],
            [
              -43.33227414390547,
              -22.971772035311535
            ],
            [
              -43.332140196498976,
              -22.97175682591878
            ],
            [
              -43.33200892439889,
              -22.97176648468471
            ],
            [
              -43.331910198348545,
              -22.97179580635442
            ],
            [
              -43.33176944285763,
              -22.971849526622734
            ],
            [
              -43.33172453399924,
              -22.9718656137241
            ],
            [
              -43.33153619690077,
              -22.97198811001323
            ],
            [
              -43.33147428139365,
              -22.97188467602772
            ],
            [
              -43.33169648337653,
              -22.971760839366816
            ],
            [
              -43.33145714778464,
              -22.971497875470714
            ],
            [
              -43.33135308721275,
              -22.97155307347992
            ],
            [
              -43.33133378490461,
              -22.97136611969967
            ],
            [
              -43.33130416820229,
              -22.971386458628526
            ],
            [
              -43.33125167265296,
              -22.971292064230997
            ],
            [
              -43.331175165978145,
              -22.971211216979338
            ],
            [
              -43.33118129224933,
              -22.97114136414343
            ],
            [
              -43.331047088456394,
              -22.971023522474056
            ],
            [
              -43.33112765894672,
              -22.970976582534
            ],
            [
              -43.33120784014518,
              -22.971049583700157
            ],
            [
              -43.33124662831375,
              -22.970974604775016
            ],
            [
              -43.33143832152452,
              -22.970899340849154
            ],
            [
              -43.331620359890714,
              -22.970881936532557
            ],
            [
              -43.331686287058986,
              -22.970887441150914
            ],
            [
              -43.33169519839254,
              -22.970779457949302
            ],
            [
              -43.33176230996847,
              -22.97077777474326
            ],
            [
              -43.33184344951206,
              -22.97076660147255
            ],
            [
              -43.33183865889463,
              -22.97065432981885
            ],
            [
              -43.33194702348569,
              -22.970655470229786
            ],
            [
              -43.331941915282975,
              -22.970761841746345
            ],
            [
              -43.33202458179546,
              -22.97075434914963
            ],
            [
              -43.33203981324012,
              -22.970774818797413
            ],
            [
              -43.33213016096342,
              -22.970772186074324
            ],
            [
              -43.33212474137211,
              -22.97081048466458
            ],
            [
              -43.33217839122675,
              -22.970789239797647
            ],
            [
              -43.33230726937509,
              -22.970779075217887
            ],
            [
              -43.33230622054131,
              -22.970748587937162
            ],
            [
              -43.332362587630854,
              -22.970747599686426
            ],
            [
              -43.33236768929354,
              -22.970774310480763
            ],
            [
              -43.33237948412413,
              -22.97077337977467
            ],
            [
              -43.33241143663088,
              -22.970772729773945
            ],
            [
              -43.332408690982,
              -22.970686348361063
            ],
            [
              -43.33251327752553,
              -22.9706786526372
            ],
            [
              -43.33253820965362,
              -22.970770152211323
            ],
            [
              -43.33256961196,
              -22.97076951354913
            ],
            [
              -43.332805597418975,
              -22.97064292309307
            ],
            [
              -43.332995439245394,
              -22.970662519882055
            ],
            [
              -43.33308574913003,
              -22.97073174883421
            ],
            [
              -43.333217832499635,
              -22.970655856702468
            ],
            [
              -43.333257524242384,
              -22.970578992060865
            ],
            [
              -43.333226209329894,
              -22.970507457590116
            ],
            [
              -43.33337280786688,
              -22.970414600052706
            ],
            [
              -43.3335141703888,
              -22.970311204360847
            ],
            [
              -43.33355914622473,
              -22.970289596886342
            ],
            [
              -43.33356544574559,
              -22.970262062261845
            ]
          ]
        ]
      },
      "properties": {
        "objectid": 471,
        "cod_favela": 587,
        "nome": "A.M. e Amigos de Rio das Pedras",
        "bairro": "Jacarepaguá",
        "complexo": "Rio das Pedras"
      }
    },
    {
      "type": "Feature",
      "id": 801,
      "geometry": {
        "type": "Polygon",
        "coordinates": [
          [
            [
              -43.33693296951566,
              -22.971560553723094
            ],
            [
              -43.33740917024486,
              -22.971512170113694
            ],
            [
              -43.337408093867154,
              -22.97157472251728
            ],
            [
              -43.33747189176285,
              -22.97157950433665
            ],
            [
              -43.33747148956375,
              -22.971612381323258
            ],
            [
              -43.33740756284008,
              -22.971605532803842
            ],
            [
              -43.33740461492701,
              -22.9717768182837
            ],
            [
              -43.33756675869046,
              -22.97177849822675
            ],
            [
              -43.33757121423016,
              -22.971885221486712
            ],
            [
              -43.33740255832645,
              -22.97189629338052
            ],
            [
              -43.337399202779295,
              -22.97209124886326
            ],
            [
              -43.33735522981284,
              -22.972387051649324
            ],
            [
              -43.33723000168519,
              -22.97272737912545
            ],
            [
              -43.33721094064617,
              -22.97277725412402
            ],
            [
              -43.3373095460057,
              -22.972791894389992
            ],
            [
              -43.33728546240019,
              -22.97287698294586
            ],
            [
              -43.33717873997437,
              -22.972861509752775
            ],
            [
              -43.337143643517294,
              -22.972953342549417
            ],
            [
              -43.3371148645725,
              -22.97318524813891
            ],
            [
              -43.33702021917088,
              -22.973381764432958
            ],
            [
              -43.33700993858292,
              -22.973396020073615
            ],
            [
              -43.337047647347006,
              -22.973420528001515
            ],
            [
              -43.33702845750341,
              -22.973447042511822
            ],
            [
              -43.336987048844364,
              -22.973427759818854
            ],
            [
              -43.33693062861587,
              -22.973505991459934
            ],
            [
              -43.33702272438857,
              -22.973552819882173
            ],
            [
              -43.33695948119347,
              -22.97364258002052
            ],
            [
              -43.33687671708271,
              -22.973615518592403
            ],
            [
              -43.33686067512779,
              -22.973669792513178
            ],
            [
              -43.3369009273932,
              -22.973683156052083
            ],
            [
              -43.336883424064084,
              -22.973721681157667
            ],
            [
              -43.33684917197335,
              -22.97370870929919
            ],
            [
              -43.33677450109074,
              -22.973910326994762
            ],
            [
              -43.33666398699477,
              -22.974073004195166
            ],
            [
              -43.33670639643292,
              -22.974101293073222
            ],
            [
              -43.33666911383484,
              -22.974153826873792
            ],
            [
              -43.336637500450955,
              -22.97420654027297
            ],
            [
              -43.33660322270024,
              -22.97428003088452
            ],
            [
              -43.3365627385874,
              -22.974255081008494
            ],
            [
              -43.33652261693917,
              -22.97423597695899
            ],
            [
              -43.336240079946485,
              -22.974710770896063
            ],
            [
              -43.336832793277125,
              -22.97498805993056
            ],
            [
              -43.33687489278394,
              -22.974888862069516
            ],
            [
              -43.337086828679006,
              -22.97498709523422
            ],
            [
              -43.33704546291979,
              -22.975087552526176
            ],
            [
              -43.33745056853706,
              -22.975315046242503
            ],
            [
              -43.33746338267951,
              -22.975284406365056
            ],
            [
              -43.33758640127375,
              -22.97535236951094
            ],
            [
              -43.337568811580525,
              -22.975381447547026
            ],
            [
              -43.3377525947662,
              -22.975484653136604
            ],
            [
              -43.33819629806287,
              -22.9757375273089
            ],
            [
              -43.338190142966674,
              -22.975769490553272
            ],
            [
              -43.33836275284274,
              -22.975787921643427
            ],
            [
              -43.338501485689264,
              -22.97584217754491
            ],
            [
              -43.33865435125149,
              -22.975995890662457
            ],
            [
              -43.338662313098155,
              -22.97605202479136
            ],
            [
              -43.338725623792094,
              -22.97606069518711
            ],
            [
              -43.33874615671933,
              -22.976031550336643
            ],
            [
              -43.3388006907497,
              -22.97605080583547
            ],
            [
              -43.33878585700136,
              -22.97608534764628
            ],
            [
              -43.3389062226893,
              -22.97614265816534
            ],
            [
              -43.33905554301349,
              -22.976189598538237
            ],
            [
              -43.3390806653216,
              -22.976144295036406
            ],
            [
              -43.33916021870553,
              -22.976172873246057
            ],
            [
              -43.33913920645064,
              -22.976219054282588
            ],
            [
              -43.33919618373,
              -22.97623911461601
            ],
            [
              -43.33923424015042,
              -22.97619147038287
            ],
            [
              -43.33930000959673,
              -22.976234865432712
            ],
            [
              -43.33928779575578,
              -22.976290786312283
            ],
            [
              -43.33936273196629,
              -22.97633525272679
            ],
            [
              -43.33937937239991,
              -22.976310805472693
            ],
            [
              -43.33944214304622,
              -22.976350510660108
            ],
            [
              -43.339430471782336,
              -22.976375447984076
            ],
            [
              -43.33949384747993,
              -22.976413053505837
            ],
            [
              -43.33953760110609,
              -22.9763708070095
            ],
            [
              -43.339676775398345,
              -22.976447372677136
            ],
            [
              -43.33971447981623,
              -22.976404741256683
            ],
            [
              -43.33984505211403,
              -22.976451431213942
            ],
            [
              -43.33991946807436,
              -22.976494915695472
            ],
            [
              -43.33993047623496,
              -22.97653773414299
            ],
            [
              -43.339988418674054,
              -22.976551623619557
            ],
            [
              -43.340045801272424,
              -22.976573577152376
            ],
            [
              -43.340088280565716,
              -22.976598107291988
            ],
            [
              -43.340483710913304,
              -22.97679175137184
            ],
            [
              -43.34056136629363,
              -22.976831807074188
            ],
            [
              -43.340672601568585,
              -22.97690315936005
            ],
            [
              -43.34079280879545,
              -22.976973814408268
            ],
            [
              -43.34082389363531,
              -22.977024851539035
            ],
            [
              -43.340889093824366,
              -22.976976045245237
            ],
            [
              -43.34112499507595,
              -22.977153449053368
            ],
            [
              -43.341168523267015,
              -22.97717206567926
            ],
            [
              -43.341153064643,
              -22.977221875923686
            ],
            [
              -43.34125061842873,
              -22.977263519506465
            ],
            [
              -43.3416893978153,
              -22.977449063179975
            ],
            [
              -43.34175594583316,
              -22.97732689969414
            ],
            [
              -43.34181030698451,
              -22.977356805150958
            ],
            [
              -43.34174712659064,
              -22.977473475228972
            ],
            [
              -43.34239042549675,
              -22.977745499501584
            ],
            [
              -43.342343075286415,
              -22.977847691024344
            ],
            [
              -43.34246283796135,
              -22.977897926948025
            ],
            [
              -43.3423368637526,
              -22.978109050401628
            ],
            [
              -43.342132591098434,
              -22.978485248145358
            ],
            [
              -43.342312204003086,
              -22.978592906106538
            ],
            [
              -43.3422694565922,
              -22.97864605597043
            ],
            [
              -43.34209509407741,
              -22.978551494304345
            ],
            [
              -43.34202829928607,
              -22.978659561814947
            ],
            [
              -43.341939478920125,
              -22.978808959587656
            ],
            [
              -43.34192137272411,
              -22.97887567499455
            ],
            [
              -43.34189509579427,
              -22.978922989777224
            ],
            [
              -43.341859498581314,
              -22.978966375250195
            ],
            [
              -43.3418479520811,
              -22.979066608550976
            ],
            [
              -43.34194243883282,
              -22.9790944359329
            ],
            [
              -43.341811062299804,
              -22.97928660351642
            ],
            [
              -43.34206295689061,
              -22.97939669336814
            ],
            [
              -43.34166029754637,
              -22.980050265158244
            ],
            [
              -43.34156349019462,
              -22.980004991936532
            ],
            [
              -43.34152366978248,
              -22.980074061016122
            ],
            [
              -43.34135996161643,
              -22.98000412055506
            ],
            [
              -43.34133070329162,
              -22.98005880657424
            ],
            [
              -43.34148258158129,
              -22.980127374286397
            ],
            [
              -43.34145696800757,
              -22.980165458286862
            ],
            [
              -43.34144223266851,
              -22.980231734772527
            ],
            [
              -43.34136454859858,
              -22.980337799594736
            ],
            [
              -43.34174808070411,
              -22.980618827866422
            ],
            [
              -43.34168129778614,
              -22.980700960554874
            ],
            [
              -43.34138588340579,
              -22.980507325511905
            ],
            [
              -43.341315196379455,
              -22.980608835242407
            ],
            [
              -43.341579748168726,
              -22.980829018614756
            ],
            [
              -43.34150513094463,
              -22.980906197093066
            ],
            [
              -43.341240678117806,
              -22.98071584884852
            ],
            [
              -43.34115221575938,
              -22.98083150522622
            ],
            [
              -43.341098617844956,
              -22.980798266986117
            ],
            [
              -43.34106931887355,
              -22.980839964389233
            ],
            [
              -43.34079548453216,
              -22.98066593072783
            ],
            [
              -43.3404474002846,
              -22.980429100762898
            ],
            [
              -43.34055639955349,
              -22.98028554151044
            ],
            [
              -43.34047784921958,
              -22.980242101537357
            ],
            [
              -43.34041395922271,
              -22.98020211944804
            ],
            [
              -43.34036152448512,
              -22.980264033723394
            ],
            [
              -43.34033698124503,
              -22.980245139763706
            ],
            [
              -43.340380148500316,
              -22.98018096103654
            ],
            [
              -43.34029998611658,
              -22.980137273810442
            ],
            [
              -43.34024611016498,
              -22.98020203030179
            ],
            [
              -43.34013784356853,
              -22.980104887810235
            ],
            [
              -43.34001556887043,
              -22.979975595097077
            ],
            [
              -43.33993616730485,
              -22.979873420360445
            ],
            [
              -43.339808420280704,
              -22.979775333955704
            ],
            [
              -43.33975030142045,
              -22.979813439233446
            ],
            [
              -43.339542940627425,
              -22.979680384682496
            ],
            [
              -43.33943389584011,
              -22.97961474391331
            ],
            [
              -43.339529962024464,
              -22.979518284620955
            ],
            [
              -43.33925942583225,
              -22.979421903814444
            ],
            [
              -43.33859456735274,
              -22.97901802658404
            ],
            [
              -43.338360619634194,
              -22.978869213924273
            ],
            [
              -43.33798250059872,
              -22.9786791975837
            ],
            [
              -43.33744636228386,
              -22.978485042738615
            ],
            [
              -43.337366163568,
              -22.978430540238914
            ],
            [
              -43.337321494556846,
              -22.978411433779208
            ],
            [
              -43.337165423693875,
              -22.97825926340751
            ],
            [
              -43.337081120357475,
              -22.978204812526595
            ],
            [
              -43.33700945732425,
              -22.978156273068464
            ],
            [
              -43.336679196380196,
              -22.977903955767765
            ],
            [
              -43.3365485201865,
              -22.977864705293108
            ],
            [
              -43.33647149193957,
              -22.97783283434411
            ],
            [
              -43.3363857406833,
              -22.977801649337852
            ],
            [
              -43.33611572735194,
              -22.97775416168593
            ],
            [
              -43.335968453985856,
              -22.977747654671486
            ],
            [
              -43.335807450927696,
              -22.977768289915666
            ],
            [
              -43.33567043647509,
              -22.97779909908145
            ],
            [
              -43.33560479461788,
              -22.977795806985352
            ],
            [
              -43.335593732876404,
              -22.977891218655586
            ],
            [
              -43.33591956624465,
              -22.977801715374753
            ],
            [
              -43.33627316963084,
              -22.977805428149214
            ],
            [
              -43.33658811531318,
              -22.97790299973807
            ],
            [
              -43.336715940036186,
              -22.97796635870026
            ],
            [
              -43.3366622791205,
              -22.978042969139477
            ],
            [
              -43.336834933294995,
              -22.978157421651353
            ],
            [
              -43.33700030611943,
              -22.978305955705704
            ],
            [
              -43.33712827678342,
              -22.978448757208135
            ],
            [
              -43.337568923364174,
              -22.978620909292268
            ],
            [
              -43.337653575726826,
              -22.978662417024246
            ],
            [
              -43.33775648556187,
              -22.97870090126048
            ],
            [
              -43.33783381993569,
              -22.978752778979334
            ],
            [
              -43.33789354123899,
              -22.978664934152416
            ],
            [
              -43.33797804760059,
              -22.978718387045742
            ],
            [
              -43.33809888280875,
              -22.978801972006604
            ],
            [
              -43.33828494495342,
              -22.978922995392473
            ],
            [
              -43.338447230704425,
              -22.979016481767033
            ],
            [
              -43.338476591523964,
              -22.979042884157654
            ],
            [
              -43.33871938070457,
              -22.979194529304255
            ],
            [
              -43.33897478874462,
              -22.979348630907232
            ],
            [
              -43.33893384572863,
              -22.97938315097825
            ],
            [
              -43.33902135582957,
              -22.979444281228098
            ],
            [
              -43.339081803460374,
              -22.97948702009254
            ],
            [
              -43.339010387996225,
              -22.979566571720376
            ],
            [
              -43.33926987145954,
              -22.979760855772966
            ],
            [
              -43.33940300202898,
              -22.979858142889842
            ],
            [
              -43.33946942943693,
              -22.979776360580384
            ],
            [
              -43.340031543906214,
              -22.980151620441337
            ],
            [
              -43.34016914514852,
              -22.980256438528972
            ],
            [
              -43.34024264289229,
              -22.980302923297653
            ],
            [
              -43.34036627660019,
              -22.980490268441734
            ],
            [
              -43.34041735891292,
              -22.980566525056748
            ],
            [
              -43.340353341520554,
              -22.980604338479992
            ],
            [
              -43.34040196188688,
              -22.980675100251506
            ],
            [
              -43.34045818815974,
              -22.980642553261433
            ],
            [
              -43.34050035380429,
              -22.980700049766785
            ],
            [
              -43.34041402499369,
              -22.980751674268415
            ],
            [
              -43.3404590811071,
              -22.980946930952022
            ],
            [
              -43.340542308971834,
              -22.98087274297038
            ],
            [
              -43.34061119300028,
              -22.980947550484046
            ],
            [
              -43.340639832273695,
              -22.98093072707109
            ],
            [
              -43.34081593935039,
              -22.981089351628786
            ],
            [
              -43.34089278078168,
              -22.981024878767727
            ],
            [
              -43.34092618484331,
              -22.981065620668616
            ],
            [
              -43.341164338569044,
              -22.98128604218503
            ],
            [
              -43.34120624148833,
              -22.98125566951522
            ],
            [
              -43.341383636877474,
              -22.98142869397282
            ],
            [
              -43.341352307048005,
              -22.981450029147137
            ],
            [
              -43.34173990459576,
              -22.981811665862303
            ],
            [
              -43.3416589052876,
              -22.981850476077078
            ],
            [
              -43.3414557544919,
              -22.98184487829694
            ],
            [
              -43.341328319303024,
              -22.981851771404894
            ],
            [
              -43.34111391444329,
              -22.981624331630133
            ],
            [
              -43.341025284578194,
              -22.98169350632354
            ],
            [
              -43.3411097726211,
              -22.981779144223214
            ],
            [
              -43.34109902464777,
              -22.981793711291008
            ],
            [
              -43.341247326920374,
              -22.98193592972948
            ],
            [
              -43.341205534427516,
              -22.981962913385036
            ],
            [
              -43.34114573897754,
              -22.981923412410403
            ],
            [
              -43.341077050795256,
              -22.98184240929997
            ],
            [
              -43.34107542709395,
              -22.981825694317642
            ],
            [
              -43.34100144419144,
              -22.981841682717544
            ],
            [
              -43.34127544241443,
              -22.982066083618577
            ],
            [
              -43.34130076022496,
              -22.982136761950716
            ],
            [
              -43.34136196970982,
              -22.982071657447296
            ],
            [
              -43.341460963575614,
              -22.982153089655096
            ],
            [
              -43.34137442526814,
              -22.98226319512996
            ],
            [
              -43.34142626283686,
              -22.982306373158895
            ],
            [
              -43.34137374587438,
              -22.982347108704744
            ],
            [
              -43.3412642538978,
              -22.982274151233696
            ],
            [
              -43.34110158945343,
              -22.98213899715066
            ],
            [
              -43.340930922077824,
              -22.98198790009876
            ],
            [
              -43.34077233438194,
              -22.982201600982588
            ],
            [
              -43.34073390770914,
              -22.982262999165922
            ],
            [
              -43.34087664423126,
              -22.982383287026465
            ],
            [
              -43.34075180031752,
              -22.982479429437287
            ],
            [
              -43.340654865700046,
              -22.98238929369239
            ],
            [
              -43.34062518811578,
              -22.982436711651715
            ],
            [
              -43.340593558725054,
              -22.982509443310295
            ],
            [
              -43.34075246758736,
              -22.982640228301474
            ],
            [
              -43.34069130158787,
              -22.982693184740423
            ],
            [
              -43.340498815724246,
              -22.982510887543853
            ],
            [
              -43.340428405573256,
              -22.9824589886995
            ],
            [
              -43.340357373172225,
              -22.9824114018441
            ],
            [
              -43.34020888295177,
              -22.982305836707617
            ],
            [
              -43.34011774968658,
              -22.982191889371485
            ],
            [
              -43.33966913838533,
              -22.981849817773842
            ],
            [
              -43.33916682931002,
              -22.981517104315714
            ],
            [
              -43.33862010546515,
              -22.981092139036097
            ],
            [
              -43.338089183845916,
              -22.98068966281477
            ],
            [
              -43.338136367934695,
              -22.980640464752785
            ],
            [
              -43.33777180369144,
              -22.980373466777785
            ],
            [
              -43.33772816608053,
              -22.980415482706356
            ],
            [
              -43.33735575020818,
              -22.980124536654337
            ],
            [
              -43.33742215370531,
              -22.98004848235988
            ],
            [
              -43.33721863206786,
              -22.9798936738021
            ],
            [
              -43.33716796874733,
              -22.979948617506846
            ],
            [
              -43.33667481647447,
              -22.97958980977183
            ],
            [
              -43.33644106598644,
              -22.979409706473234
            ],
            [
              -43.33637732105626,
              -22.979364385337366
            ],
            [
              -43.336299596989136,
              -22.97929656436075
            ],
            [
              -43.335940523136436,
              -22.979029669786645
            ],
            [
              -43.33572329070972,
              -22.978842990248182
            ],
            [
              -43.33530390325708,
              -22.978497511500073
            ],
            [
              -43.33531517822194,
              -22.978443066734922
            ],
            [
              -43.33494126579904,
              -22.978140205254487
            ],
            [
              -43.33493592748679,
              -22.978105451015164
            ],
            [
              -43.334768073675264,
              -22.978004294238318
            ],
            [
              -43.334756766440755,
              -22.977960301073917
            ],
            [
              -43.33467100900188,
              -22.977919465677793
            ],
            [
              -43.334625946616065,
              -22.977995832496614
            ],
            [
              -43.33448262495441,
              -22.977882259417292
            ],
            [
              -43.334524381247114,
              -22.97782687527784
            ],
            [
              -43.334306968491774,
              -22.977689586025406
            ],
            [
              -43.334416229090415,
              -22.977467425300407
            ],
            [
              -43.33415416992854,
              -22.977342639358444
            ],
            [
              -43.333821508867445,
              -22.977306368426103
            ],
            [
              -43.33356944502989,
              -22.977175603499255
            ],
            [
              -43.333300970341696,
              -22.97697260163399
            ],
            [
              -43.3331357660541,
              -22.976810722734136
            ],
            [
              -43.3328937590265,
              -22.97656529288571
            ],
            [
              -43.33265637005771,
              -22.97641332856006
            ],
            [
              -43.33243906231395,
              -22.97630676440551
            ],
            [
              -43.33238928429797,
              -22.976369644929076
            ],
            [
              -43.3323256563061,
              -22.976334652031223
            ],
            [
              -43.33215476178473,
              -22.976238893590697
            ],
            [
              -43.331717898337246,
              -22.97675850132794
            ],
            [
              -43.331465736315586,
              -22.976939373064607
            ],
            [
              -43.33139539246363,
              -22.97688259905969
            ],
            [
              -43.33163110882454,
              -22.97668112664635
            ],
            [
              -43.33199263608462,
              -22.976240503378822
            ],
            [
              -43.3319627293896,
              -22.976154170283138
            ],
            [
              -43.33205608867109,
              -22.976055795183445
            ],
            [
              -43.33191033508019,
              -22.975959761961978
            ],
            [
              -43.331818178512826,
              -22.976092837819113
            ],
            [
              -43.33157055692396,
              -22.975902641651512
            ],
            [
              -43.33167361582636,
              -22.975803793632668
            ],
            [
              -43.33155216333369,
              -22.97572377104375
            ],
            [
              -43.3311385074021,
              -22.97537243902212
            ],
            [
              -43.330942263245205,
              -22.975197223208813
            ],
            [
              -43.33101533100609,
              -22.97513108987941
            ],
            [
              -43.331211462383116,
              -22.975296668559512
            ],
            [
              -43.33183049609192,
              -22.974653743203994
            ],
            [
              -43.331728246194174,
              -22.974529891452427
            ],
            [
              -43.33158854791947,
              -22.97468313828093
            ],
            [
              -43.331502487946274,
              -22.974604917847792
            ],
            [
              -43.33137688419178,
              -22.974504841032253
            ],
            [
              -43.33142666895343,
              -22.974441307947707
            ],
            [
              -43.33127259456801,
              -22.97435485318647
            ],
            [
              -43.331309245499675,
              -22.97431222992319
            ],
            [
              -43.33139178837979,
              -22.97416233076269
            ],
            [
              -43.331184144329704,
              -22.974003698630458
            ],
            [
              -43.3308439221952,
              -22.973775916515496
            ],
            [
              -43.330235076268465,
              -22.973358470367252
            ],
            [
              -43.32974950919586,
              -22.972995701322617
            ],
            [
              -43.329752980276226,
              -22.972947695899833
            ],
            [
              -43.33085202587267,
              -22.97241211891802
            ],
            [
              -43.33152198809412,
              -22.972077535118125
            ],
            [
              -43.33180600670236,
              -22.97195241011602
            ],
            [
              -43.332086619133555,
              -22.971869953579255
            ],
            [
              -43.33219928294129,
              -22.97184978668168
            ],
            [
              -43.33309401674011,
              -22.972459736365465
            ],
            [
              -43.333431326455944,
              -22.972690150778014
            ],
            [
              -43.33468817870877,
              -22.9736241830783
            ],
            [
              -43.335075272094166,
              -22.9737910617973
            ],
            [
              -43.335846523253466,
              -22.974365001611478
            ],
            [
              -43.336192168980574,
              -22.97368001592516
            ],
            [
              -43.336558080646405,
              -22.972987231627663
            ],
            [
              -43.33674147592744,
              -22.97260481480208
            ],
            [
              -43.33681581604639,
              -22.97241876180927
            ],
            [
              -43.33688261858776,
              -22.972141879020462
            ],
            [
              -43.33693533824036,
              -22.971838161456514
            ],
            [
              -43.33693296951566,
              -22.971560553723094
            ]
          ]
        ]
      },
      "properties": {
        "objectid": 801,
        "cod_favela": 256,
        "nome": "Rio das Pedras",
        "bairro": "Jacarepaguá",
        "complexo": "Rio das Pedras"
      }
    },
    {
      "type": "Feature",
      "id": 836,
      "geometry": {
        "type": "MultiPolygon",
        "coordinates": [
          [
            [
              [
                -43.319463700115705,
                -22.990197123894117
              ],
              [
                -43.31974080194225,
                -22.99008660398246
              ],
              [
                -43.319973628453205,
                -22.99004652698138
              ],
              [
                -43.3202953950017,
                -22.990040484121913
              ],
              [
                -43.32048805234629,
                -22.990038272552724
              ],
              [
                -43.32063617715525,
                -22.99014810176239
              ],
              [
                -43.320863734999506,
                -22.99032779306151
              ],
              [
                -43.321017962055414,
                -22.990449978373476
              ],
              [
                -43.32115106725452,
                -22.990628669016044
              ],
              [
                -43.32122284705637,
                -22.99081143721713
              ],
              [
                -43.32123862240942,
                -22.99118743781539
              ],
              [
                -43.321228479380174,
                -22.99138824721916
              ],
              [
                -43.32120640257016,
                -22.991728391008685
              ],
              [
                -43.32117246676093,
                -22.991995132726384
              ],
              [
                -43.32114175536217,
                -22.992207543525417
              ],
              [
                -43.32109438409283,
                -22.992528508764163
              ],
              [
                -43.32107452694278,
                -22.992689031951624
              ],
              [
                -43.32107248097626,
                -22.992854470622344
              ],
              [
                -43.32109643050416,
                -22.992982366804107
              ],
              [
                -43.32115371326667,
                -22.99309879687071
              ],
              [
                -43.32119808602931,
                -22.993226908614577
              ],
              [
                -43.32122717074701,
                -22.99335249405865
              ],
              [
                -43.321243608422364,
                -22.99346849116623
              ],
              [
                -43.32124745747519,
                -22.993570172965597
              ],
              [
                -43.32122590510857,
                -22.993867773876737
              ],
              [
                -43.32081695555592,
                -22.993903622794235
              ],
              [
                -43.32081342378511,
                -22.99376645987892
              ],
              [
                -43.32076861604448,
                -22.993782118237636
              ],
              [
                -43.32071798338333,
                -22.99387533222858
              ],
              [
                -43.3206163135337,
                -22.993800963450475
              ],
              [
                -43.32037868667182,
                -22.99392048053989
              ],
              [
                -43.32019517792855,
                -22.993873934249027
              ],
              [
                -43.320115223585205,
                -22.99380983043087
              ],
              [
                -43.31987451930958,
                -22.99385813382874
              ],
              [
                -43.31970181683069,
                -22.993904661304935
              ],
              [
                -43.31961733728826,
                -22.99373175659245
              ],
              [
                -43.319720537999906,
                -22.993705483824808
              ],
              [
                -43.32002379204168,
                -22.99360117895357
              ],
              [
                -43.32014206863012,
                -22.993529773947248
              ],
              [
                -43.32010128235243,
                -22.99349989572988
              ],
              [
                -43.32021263662703,
                -22.993344332032713
              ],
              [
                -43.32019374077043,
                -22.99328469852944
              ],
              [
                -43.31994064167364,
                -22.993239666178088
              ],
              [
                -43.319941594415226,
                -22.993162680209988
              ],
              [
                -43.32017117115896,
                -22.993064742183133
              ],
              [
                -43.32006799782321,
                -22.992943097481337
              ],
              [
                -43.320122747452,
                -22.99285149328822
              ],
              [
                -43.32022039737902,
                -22.992800526328196
              ],
              [
                -43.320540393746455,
                -22.993144296434405
              ],
              [
                -43.320721916451305,
                -22.993330591809627
              ],
              [
                -43.320864733255206,
                -22.993482401865254
              ],
              [
                -43.320892432587996,
                -22.993467449822894
              ],
              [
                -43.32091329058086,
                -22.99349315660012
              ],
              [
                -43.320890597587784,
                -22.99350989381654
              ],
              [
                -43.32092855934386,
                -22.993550246453633
              ],
              [
                -43.32101801481848,
                -22.99333609514653
              ],
              [
                -43.32083722250167,
                -22.993090714276217
              ],
              [
                -43.320648293579815,
                -22.992876647743127
              ],
              [
                -43.32057181155737,
                -22.99277056275222
              ],
              [
                -43.320539736603976,
                -22.992789450001982
              ],
              [
                -43.320481325714745,
                -22.992895069169762
              ],
              [
                -43.32045418379421,
                -22.992947207515755
              ],
              [
                -43.32041828782822,
                -22.992938984576348
              ],
              [
                -43.32041069238049,
                -22.99289047036737
              ],
              [
                -43.32038762673344,
                -22.99272248609626
              ],
              [
                -43.320324883114836,
                -22.992563891147412
              ],
              [
                -43.32035643517033,
                -22.99244621744785
              ],
              [
                -43.32029325037271,
                -22.992433825495457
              ],
              [
                -43.32029999059426,
                -22.99240253050426
              ],
              [
                -43.320365226691806,
                -22.992413427041686
              ],
              [
                -43.320429719296044,
                -22.99217290074938
              ],
              [
                -43.32051561980048,
                -22.992089185431514
              ],
              [
                -43.320585630219995,
                -22.992053267462566
              ],
              [
                -43.32038824065679,
                -22.992016328431507
              ],
              [
                -43.320403142520604,
                -22.991820147303894
              ],
              [
                -43.32055256655557,
                -22.991506047684332
              ],
              [
                -43.32058568864109,
                -22.991498923221414
              ],
              [
                -43.320561877163556,
                -22.991430968184872
              ],
              [
                -43.320608626380746,
                -22.991417740733485
              ],
              [
                -43.320752547109514,
                -22.99137311768247
              ],
              [
                -43.3207401876005,
                -22.991465689934742
              ],
              [
                -43.32080896446771,
                -22.991620410391295
              ],
              [
                -43.32075175199738,
                -22.991644657361846
              ],
              [
                -43.32078482153533,
                -22.991802115777293
              ],
              [
                -43.320896314834386,
                -22.99180698408331
              ],
              [
                -43.32089138405592,
                -22.991689307290986
              ],
              [
                -43.320910058283665,
                -22.991528760734866
              ],
              [
                -43.32082110974543,
                -22.991529778375384
              ],
              [
                -43.320799832709824,
                -22.991366835985037
              ],
              [
                -43.32088070684445,
                -22.99122619151831
              ],
              [
                -43.320695202749306,
                -22.991155677085818
              ],
              [
                -43.32060296565752,
                -22.991249798313028
              ],
              [
                -43.32052541604811,
                -22.991297271583967
              ],
              [
                -43.320309038057836,
                -22.991157746042152
              ],
              [
                -43.320337362274515,
                -22.991093351970196
              ],
              [
                -43.32031020207195,
                -22.991063658058202
              ],
              [
                -43.32033158717525,
                -22.991035997898937
              ],
              [
                -43.320170528236915,
                -22.99105320030593
              ],
              [
                -43.320167263783425,
                -22.991169540331647
              ],
              [
                -43.32011340824909,
                -22.99118847376936
              ],
              [
                -43.32012503663723,
                -22.991246472403176
              ],
              [
                -43.320089042744065,
                -22.991318728526778
              ],
              [
                -43.320053853858575,
                -22.991326001647376
              ],
              [
                -43.32001161943883,
                -22.99140201427524
              ],
              [
                -43.31993756155254,
                -22.991380202510012
              ],
              [
                -43.319903132443464,
                -22.991463782570317
              ],
              [
                -43.319773977839525,
                -22.99157710387549
              ],
              [
                -43.31961511152504,
                -22.991512063424366
              ],
              [
                -43.31956916582949,
                -22.991569433223717
              ],
              [
                -43.31948299076496,
                -22.99151754766674
              ],
              [
                -43.31951283468983,
                -22.991384237359686
              ],
              [
                -43.319560013677496,
                -22.991285461173383
              ],
              [
                -43.31948695687288,
                -22.99119799280679
              ],
              [
                -43.319378346361205,
                -22.99135515473115
              ],
              [
                -43.31931472951854,
                -22.991323895328556
              ],
              [
                -43.31927870440226,
                -22.991282572224844
              ],
              [
                -43.31931192170597,
                -22.99120526936637
              ],
              [
                -43.31921522729974,
                -22.991198269519003
              ],
              [
                -43.31924289492053,
                -22.991122424047244
              ],
              [
                -43.319282653794716,
                -22.991055885708263
              ],
              [
                -43.31923952661246,
                -22.990981867310527
              ],
              [
                -43.31916344262311,
                -22.990860977340095
              ],
              [
                -43.319186902054234,
                -22.99075205097157
              ],
              [
                -43.31905055427901,
                -22.990688776052757
              ],
              [
                -43.31905161905823,
                -22.990582208388254
              ],
              [
                -43.31896734502727,
                -22.990561749858426
              ],
              [
                -43.31917169342773,
                -22.99020993780866
              ],
              [
                -43.31930669507509,
                -22.990233153316087
              ],
              [
                -43.319463700115705,
                -22.990197123894117
              ]
            ]
          ],
          [
            [
              [
                -43.319339394916966,
                -22.993880313444464
              ],
              [
                -43.319462578439015,
                -22.99367969509013
              ],
              [
                -43.319546832476526,
                -22.99371587755269
              ],
              [
                -43.319458010154506,
                -22.99387765182792
              ],
              [
                -43.31938534329974,
                -22.993931772291575
              ],
              [
                -43.319339394916966,
                -22.993880313444464
              ]
            ]
          ],
          [
            [
              [
                -43.31868355043833,
                -22.989374883991925
              ],
              [
                -43.31861177531206,
                -22.989015937802165
              ],
              [
                -43.31860648659262,
                -22.98883445052038
              ],
              [
                -43.31864618253933,
                -22.988672048540952
              ],
              [
                -43.318758525418225,
                -22.988526699994328
              ],
              [
                -43.318977135192206,
                -22.988289771289008
              ],
              [
                -43.319162432081626,
                -22.98812810046369
              ],
              [
                -43.31961430971262,
                -22.98900796701534
              ],
              [
                -43.31973212986848,
                -22.989223706847138
              ],
              [
                -43.319607940123994,
                -22.989275250030413
              ],
              [
                -43.318767329101874,
                -22.98965759634079
              ],
              [
                -43.31868355043833,
                -22.989374883991925
              ]
            ]
          ],
          [
            [
              [
                -43.319904042333086,
                -22.987707372056384
              ],
              [
                -43.319873813659584,
                -22.98770705146025
              ],
              [
                -43.31980327407057,
                -22.987581420775793
              ],
              [
                -43.31978491141826,
                -22.987561847847317
              ],
              [
                -43.319969754597295,
                -22.987471223245915
              ],
              [
                -43.32020564705306,
                -22.987389751447534
              ],
              [
                -43.32044512521929,
                -22.987394444426013
              ],
              [
                -43.320693239041134,
                -22.98745305635095
              ],
              [
                -43.32114491382305,
                -22.987599950645116
              ],
              [
                -43.32144854291505,
                -22.987682834689345
              ],
              [
                -43.32166223033526,
                -22.98770447692467
              ],
              [
                -43.32179967124708,
                -22.98773552674969
              ],
              [
                -43.32184212883236,
                -22.98772312125156
              ],
              [
                -43.32210466943078,
                -22.987784401620676
              ],
              [
                -43.32216061161226,
                -22.988204074254874
              ],
              [
                -43.32232922694265,
                -22.98883341325479
              ],
              [
                -43.32249764577547,
                -22.98883703188463
              ],
              [
                -43.32255801968234,
                -22.988950039943724
              ],
              [
                -43.32258314744457,
                -22.989040594573545
              ],
              [
                -43.32252129059188,
                -22.989115363477783
              ],
              [
                -43.322241631315514,
                -22.98934627198952
              ],
              [
                -43.321992139605506,
                -22.989648231057107
              ],
              [
                -43.321902587507,
                -22.989386351564967
              ],
              [
                -43.321472635354056,
                -22.98950693982822
              ],
              [
                -43.32139620292362,
                -22.989276761577923
              ],
              [
                -43.32157931115049,
                -22.98921447875673
              ],
              [
                -43.32151934428157,
                -22.988934931431725
              ],
              [
                -43.321502362408964,
                -22.98870538223858
              ],
              [
                -43.3214871558477,
                -22.988647139855868
              ],
              [
                -43.321226651227576,
                -22.98870107528446
              ],
              [
                -43.32118378735424,
                -22.988723749670346
              ],
              [
                -43.32110601227767,
                -22.988619508901234
              ],
              [
                -43.32106959423367,
                -22.98861328545179
              ],
              [
                -43.320956905068165,
                -22.988510892525014
              ],
              [
                -43.32090498029188,
                -22.988448639579627
              ],
              [
                -43.32081441318322,
                -22.988373734029004
              ],
              [
                -43.32078848935186,
                -22.988401450932198
              ],
              [
                -43.32062064170232,
                -22.988434121198637
              ],
              [
                -43.320441575977654,
                -22.988444380853558
              ],
              [
                -43.320406153553364,
                -22.98847706322838
              ],
              [
                -43.32050066576269,
                -22.988544813327053
              ],
              [
                -43.32051561183485,
                -22.98865262910243
              ],
              [
                -43.32049007929547,
                -22.98865374823406
              ],
              [
                -43.32039694144666,
                -22.988657830597027
              ],
              [
                -43.32039231641159,
                -22.98862136959694
              ],
              [
                -43.32035591300623,
                -22.988630998708622
              ],
              [
                -43.3203574404236,
                -22.988652611025916
              ],
              [
                -43.32032504510811,
                -22.98866057310809
              ],
              [
                -43.32031126814753,
                -22.988613913275525
              ],
              [
                -43.32034011649145,
                -22.988602590272627
              ],
              [
                -43.32038829407152,
                -22.98858964890324
              ],
              [
                -43.32037998898055,
                -22.988524155678405
              ],
              [
                -43.32027823531767,
                -22.988477860729976
              ],
              [
                -43.319904042333086,
                -22.987707372056384
              ]
            ]
          ]
        ]
      },
      "properties": {
        "objectid": 836,
        "cod_favela": 370,
        "nome": "Muzema",
        "bairro": "Itanhangá",
        "complexo": "Muzema"
      }
    }
  ]
}
