{
  "type": "FeatureCollection",
  "source": "SABREN 2022 - Instituto Pereira Passos / Prefeitura do Rio",
  "sourceUrl": "https://pgeo3.rio.rj.gov.br/arcgis/rest/services/SABREN/Limites_de_Favelas/FeatureServer/13/query",
  "generatedAt": "2026-08-29T17:48:09.461Z",
  "audit": [
    {
      "appName": "Vidigal",
      "sourceFeatures": 1,
      "polygons": 1,
      "vertices": 126,
      "center": [
        -43.240929,
        -22.995845
      ],
      "sourceNames": [
        "Vidigal"
      ],
      "detectedComplex": null,
      "detectedSeedName": null
    },
    {
      "appName": "Complexo da Maré",
      "sourceFeatures": 6,
      "polygons": 6,
      "vertices": 253,
      "center": [
        -43.2415,
        -22.8555
      ],
      "sourceNames": [
        "Parque Rubens Vaz",
        "Parque União",
        "Baixa do Sapateiro",
        "Nova Holanda",
        "Parque Maré",
        "Timbau"
      ],
      "detectedComplex": null,
      "detectedSeedName": null
    },
    {
      "appName": "Rocinha",
      "sourceFeatures": 1,
      "polygons": 2,
      "vertices": 495,
      "center": [
        -43.2471,
        -22.9881
      ],
      "sourceNames": [
        "Rocinha"
      ],
      "detectedComplex": null,
      "detectedSeedName": null
    }
  ],
  "features": [
    {
      "type": "Feature",
      "properties": {
        "objectid": 600,
        "nome": "Vidigal",
        "complexo": "Isolada",
        "bairro": "Vidigal",
        "appCommunity": "Vidigal"
      },
      "geometry": {
        "type": "Polygon",
        "coordinates": [
          [
            [
              -43.245149,
              -22.995594
            ],
            [
              -43.246302,
              -22.995923
            ],
            [
              -43.246299,
              -22.996117
            ],
            [
              -43.24643,
              -22.99624
            ],
            [
              -43.246683,
              -22.996284
            ],
            [
              -43.246761,
              -22.996341
            ],
            [
              -43.246762,
              -22.996559
            ],
            [
              -43.246651,
              -22.996785
            ],
            [
              -43.246378,
              -22.996858
            ],
            [
              -43.246025,
              -22.996838
            ],
            [
              -43.245925,
              -22.996949
            ],
            [
              -43.245736,
              -22.997039
            ],
            [
              -43.245493,
              -22.997077
            ],
            [
              -43.245487,
              -22.997131
            ],
            [
              -43.245439,
              -22.997125
            ],
            [
              -43.245437,
              -22.997072
            ],
            [
              -43.245332,
              -22.99705
            ],
            [
              -43.245274,
              -22.996973
            ],
            [
              -43.245173,
              -22.996965
            ],
            [
              -43.245007,
              -22.997153
            ],
            [
              -43.244764,
              -22.997191
            ],
            [
              -43.244533,
              -22.997189
            ],
            [
              -43.244323,
              -22.997217
            ],
            [
              -43.244035,
              -22.997326
            ],
            [
              -43.243914,
              -22.997304
            ],
            [
              -43.243684,
              -22.99719
            ],
            [
              -43.243529,
              -22.997249
            ],
            [
              -43.243513,
              -22.997354
            ],
            [
              -43.243339,
              -22.997441
            ],
            [
              -43.243163,
              -22.997418
            ],
            [
              -43.243043,
              -22.997366
            ],
            [
              -43.242987,
              -22.997416
            ],
            [
              -43.242919,
              -22.997548
            ],
            [
              -43.242763,
              -22.99771
            ],
            [
              -43.242364,
              -22.997859
            ],
            [
              -43.241957,
              -22.997968
            ],
            [
              -43.241987,
              -22.997993
            ],
            [
              -43.241953,
              -22.998029
            ],
            [
              -43.241878,
              -22.99799
            ],
            [
              -43.241303,
              -22.998071
            ],
            [
              -43.240974,
              -22.997945
            ],
            [
              -43.240724,
              -22.997728
            ],
            [
              -43.240628,
              -22.997482
            ],
            [
              -43.240667,
              -22.997284
            ],
            [
              -43.240784,
              -22.9972
            ],
            [
              -43.240793,
              -22.99712
            ],
            [
              -43.24076,
              -22.997034
            ],
            [
              -43.240609,
              -22.996953
            ],
            [
              -43.240416,
              -22.996806
            ],
            [
              -43.240241,
              -22.996702
            ],
            [
              -43.240053,
              -22.996782
            ],
            [
              -43.239887,
              -22.996821
            ],
            [
              -43.239679,
              -22.996727
            ],
            [
              -43.239404,
              -22.996662
            ],
            [
              -43.238899,
              -22.996463
            ],
            [
              -43.238613,
              -22.99646
            ],
            [
              -43.238506,
              -22.99649
            ],
            [
              -43.238466,
              -22.996556
            ],
            [
              -43.238139,
              -22.996495
            ],
            [
              -43.237874,
              -22.996361
            ],
            [
              -43.237803,
              -22.996063
            ],
            [
              -43.237615,
              -22.996071
            ],
            [
              -43.237572,
              -22.996126
            ],
            [
              -43.23761,
              -22.996123
            ],
            [
              -43.237593,
              -22.996195
            ],
            [
              -43.237525,
              -22.996185
            ],
            [
              -43.237503,
              -22.996213
            ],
            [
              -43.237475,
              -22.996446
            ],
            [
              -43.237697,
              -22.996581
            ],
            [
              -43.237574,
              -22.996678
            ],
            [
              -43.237569,
              -22.996727
            ],
            [
              -43.238067,
              -22.996938
            ],
            [
              -43.23812,
              -22.997077
            ],
            [
              -43.238063,
              -22.997219
            ],
            [
              -43.23794,
              -22.997278
            ],
            [
              -43.236524,
              -22.996673
            ],
            [
              -43.236177,
              -22.996463
            ],
            [
              -43.235971,
              -22.996257
            ],
            [
              -43.235697,
              -22.996091
            ],
            [
              -43.235217,
              -22.995237
            ],
            [
              -43.235297,
              -22.995214
            ],
            [
              -43.235529,
              -22.995079
            ],
            [
              -43.235567,
              -22.994962
            ],
            [
              -43.235674,
              -22.99506
            ],
            [
              -43.235796,
              -22.99499
            ],
            [
              -43.235874,
              -22.994912
            ],
            [
              -43.236009,
              -22.994915
            ],
            [
              -43.23603,
              -22.995034
            ],
            [
              -43.236152,
              -22.99499
            ],
            [
              -43.236175,
              -22.99464
            ],
            [
              -43.236335,
              -22.994491
            ],
            [
              -43.237104,
              -22.994591
            ],
            [
              -43.237124,
              -22.994446
            ],
            [
              -43.237688,
              -22.994561
            ],
            [
              -43.237878,
              -22.99457
            ],
            [
              -43.23808,
              -22.994541
            ],
            [
              -43.238288,
              -22.994584
            ],
            [
              -43.238695,
              -22.994789
            ],
            [
              -43.239053,
              -22.99481
            ],
            [
              -43.239705,
              -22.994797
            ],
            [
              -43.239476,
              -22.994073
            ],
            [
              -43.239394,
              -22.993923
            ],
            [
              -43.239596,
              -22.993644
            ],
            [
              -43.239934,
              -22.993269
            ],
            [
              -43.240559,
              -22.993445
            ],
            [
              -43.240899,
              -22.993587
            ],
            [
              -43.241222,
              -22.993759
            ],
            [
              -43.241372,
              -22.993721
            ],
            [
              -43.241466,
              -22.993771
            ],
            [
              -43.241448,
              -22.993933
            ],
            [
              -43.241507,
              -22.99401
            ],
            [
              -43.24167,
              -22.994317
            ],
            [
              -43.241743,
              -22.994605
            ],
            [
              -43.242092,
              -22.99478
            ],
            [
              -43.242347,
              -22.994946
            ],
            [
              -43.242542,
              -22.995165
            ],
            [
              -43.242764,
              -22.995076
            ],
            [
              -43.243113,
              -22.994988
            ],
            [
              -43.243305,
              -22.995149
            ],
            [
              -43.243553,
              -22.995114
            ],
            [
              -43.243709,
              -22.994903
            ],
            [
              -43.244319,
              -22.994747
            ],
            [
              -43.244575,
              -22.994821
            ],
            [
              -43.244674,
              -22.995206
            ],
            [
              -43.244907,
              -22.995338
            ],
            [
              -43.245149,
              -22.995594
            ]
          ]
        ]
      }
    },
    {
      "type": "Feature",
      "properties": {
        "objectid": 636,
        "nome": "Parque Rubens Vaz",
        "complexo": "Maré",
        "bairro": "Maré",
        "appCommunity": "Complexo da Maré"
      },
      "geometry": {
        "type": "Polygon",
        "coordinates": [
          [
            [
              -43.240609,
              -22.851013
            ],
            [
              -43.24162,
              -22.851308
            ],
            [
              -43.242027,
              -22.851444
            ],
            [
              -43.242356,
              -22.851601
            ],
            [
              -43.242669,
              -22.851721
            ],
            [
              -43.243092,
              -22.851828
            ],
            [
              -43.24444,
              -22.852251
            ],
            [
              -43.246743,
              -22.853027
            ],
            [
              -43.247033,
              -22.853081
            ],
            [
              -43.247347,
              -22.853172
            ],
            [
              -43.247345,
              -22.853227
            ],
            [
              -43.247379,
              -22.85323
            ],
            [
              -43.247378,
              -22.853308
            ],
            [
              -43.247342,
              -22.853307
            ],
            [
              -43.247335,
              -22.853486
            ],
            [
              -43.245301,
              -22.853186
            ],
            [
              -43.245293,
              -22.853237
            ],
            [
              -43.241005,
              -22.852595
            ],
            [
              -43.24103,
              -22.852474
            ],
            [
              -43.240936,
              -22.852331
            ],
            [
              -43.240139,
              -22.852179
            ],
            [
              -43.239983,
              -22.852532
            ],
            [
              -43.2398,
              -22.85302
            ],
            [
              -43.239729,
              -22.853008
            ],
            [
              -43.239897,
              -22.852557
            ],
            [
              -43.239921,
              -22.852444
            ],
            [
              -43.240451,
              -22.851172
            ],
            [
              -43.240497,
              -22.851004
            ],
            [
              -43.240609,
              -22.851013
            ]
          ]
        ]
      }
    },
    {
      "type": "Feature",
      "properties": {
        "objectid": 1031,
        "nome": "Parque União",
        "complexo": "Maré",
        "bairro": "Maré",
        "appCommunity": "Complexo da Maré"
      },
      "geometry": {
        "type": "Polygon",
        "coordinates": [
          [
            [
              -43.244411,
              -22.847796
            ],
            [
              -43.245088,
              -22.848336
            ],
            [
              -43.245742,
              -22.848897
            ],
            [
              -43.246269,
              -22.849449
            ],
            [
              -43.246571,
              -22.849839
            ],
            [
              -43.246856,
              -22.850309
            ],
            [
              -43.247054,
              -22.850865
            ],
            [
              -43.247158,
              -22.851304
            ],
            [
              -43.247275,
              -22.852027
            ],
            [
              -43.247286,
              -22.852406
            ],
            [
              -43.24691,
              -22.852278
            ],
            [
              -43.246634,
              -22.85296
            ],
            [
              -43.24484,
              -22.85235
            ],
            [
              -43.242646,
              -22.851662
            ],
            [
              -43.241926,
              -22.851377
            ],
            [
              -43.240516,
              -22.850924
            ],
            [
              -43.241133,
              -22.849451
            ],
            [
              -43.241376,
              -22.849498
            ],
            [
              -43.241535,
              -22.849317
            ],
            [
              -43.241758,
              -22.849174
            ],
            [
              -43.241994,
              -22.849154
            ],
            [
              -43.242402,
              -22.849188
            ],
            [
              -43.242407,
              -22.848824
            ],
            [
              -43.242684,
              -22.848717
            ],
            [
              -43.243212,
              -22.848606
            ],
            [
              -43.243903,
              -22.848118
            ],
            [
              -43.244411,
              -22.847796
            ]
          ]
        ]
      }
    },
    {
      "type": "Feature",
      "properties": {
        "objectid": 1033,
        "nome": "Baixa do Sapateiro",
        "complexo": "Maré",
        "bairro": "Maré",
        "appCommunity": "Complexo da Maré"
      },
      "geometry": {
        "type": "Polygon",
        "coordinates": [
          [
            [
              -43.241514,
              -22.858439
            ],
            [
              -43.243776,
              -22.858741
            ],
            [
              -43.244239,
              -22.85893
            ],
            [
              -43.244289,
              -22.858909
            ],
            [
              -43.244625,
              -22.859096
            ],
            [
              -43.244619,
              -22.859141
            ],
            [
              -43.244555,
              -22.859181
            ],
            [
              -43.244383,
              -22.859206
            ],
            [
              -43.244393,
              -22.859246
            ],
            [
              -43.244054,
              -22.859317
            ],
            [
              -43.24406,
              -22.859341
            ],
            [
              -43.244031,
              -22.859348
            ],
            [
              -43.244014,
              -22.859322
            ],
            [
              -43.243721,
              -22.859362
            ],
            [
              -43.244075,
              -22.859974
            ],
            [
              -43.244337,
              -22.860737
            ],
            [
              -43.244335,
              -22.860811
            ],
            [
              -43.24491,
              -22.860779
            ],
            [
              -43.244907,
              -22.86082
            ],
            [
              -43.244288,
              -22.860864
            ],
            [
              -43.24407,
              -22.86142
            ],
            [
              -43.244154,
              -22.861449
            ],
            [
              -43.244193,
              -22.861414
            ],
            [
              -43.244313,
              -22.861414
            ],
            [
              -43.244313,
              -22.861446
            ],
            [
              -43.24446,
              -22.861413
            ],
            [
              -43.244683,
              -22.861412
            ],
            [
              -43.244682,
              -22.861458
            ],
            [
              -43.243191,
              -22.861566
            ],
            [
              -43.24322,
              -22.862034
            ],
            [
              -43.24294,
              -22.862088
            ],
            [
              -43.242763,
              -22.861719
            ],
            [
              -43.242037,
              -22.862168
            ],
            [
              -43.241664,
              -22.862195
            ],
            [
              -43.241563,
              -22.862115
            ],
            [
              -43.241394,
              -22.862113
            ],
            [
              -43.240617,
              -22.861885
            ],
            [
              -43.240414,
              -22.861867
            ],
            [
              -43.240029,
              -22.861894
            ],
            [
              -43.239741,
              -22.861859
            ],
            [
              -43.239517,
              -22.86178
            ],
            [
              -43.239495,
              -22.861824
            ],
            [
              -43.239454,
              -22.861804
            ],
            [
              -43.239474,
              -22.861689
            ],
            [
              -43.239587,
              -22.861538
            ],
            [
              -43.239511,
              -22.861318
            ],
            [
              -43.23945,
              -22.861207
            ],
            [
              -43.240364,
              -22.860972
            ],
            [
              -43.240755,
              -22.860823
            ],
            [
              -43.240995,
              -22.860691
            ],
            [
              -43.240927,
              -22.860539
            ],
            [
              -43.240982,
              -22.860466
            ],
            [
              -43.241118,
              -22.860177
            ],
            [
              -43.241354,
              -22.860179
            ],
            [
              -43.241425,
              -22.859812
            ],
            [
              -43.24159,
              -22.859841
            ],
            [
              -43.241624,
              -22.859714
            ],
            [
              -43.241822,
              -22.859751
            ],
            [
              -43.242032,
              -22.859566
            ],
            [
              -43.241702,
              -22.859391
            ],
            [
              -43.24172,
              -22.859317
            ],
            [
              -43.241345,
              -22.859228
            ],
            [
              -43.241449,
              -22.858679
            ],
            [
              -43.241514,
              -22.858439
            ]
          ]
        ]
      }
    },
    {
      "type": "Feature",
      "properties": {
        "objectid": 1032,
        "nome": "Nova Holanda",
        "complexo": "Maré",
        "bairro": "Maré",
        "appCommunity": "Complexo da Maré"
      },
      "geometry": {
        "type": "Polygon",
        "coordinates": [
          [
            [
              -43.240362,
              -22.855706
            ],
            [
              -43.240412,
              -22.85572
            ],
            [
              -43.241007,
              -22.853049
            ],
            [
              -43.240916,
              -22.853035
            ],
            [
              -43.241008,
              -22.852622
            ],
            [
              -43.241107,
              -22.852622
            ],
            [
              -43.245146,
              -22.853241
            ],
            [
              -43.245168,
              -22.854689
            ],
            [
              -43.243264,
              -22.854403
            ],
            [
              -43.243164,
              -22.854789
            ],
            [
              -43.242945,
              -22.854742
            ],
            [
              -43.242732,
              -22.855396
            ],
            [
              -43.242245,
              -22.855311
            ],
            [
              -43.242104,
              -22.855878
            ],
            [
              -43.242614,
              -22.856
            ],
            [
              -43.242291,
              -22.857243
            ],
            [
              -43.241614,
              -22.857094
            ],
            [
              -43.241588,
              -22.857218
            ],
            [
              -43.240551,
              -22.857
            ],
            [
              -43.240535,
              -22.85706
            ],
            [
              -43.240505,
              -22.857054
            ],
            [
              -43.240517,
              -22.856993
            ],
            [
              -43.240449,
              -22.856979
            ],
            [
              -43.240427,
              -22.857037
            ],
            [
              -43.240152,
              -22.856989
            ],
            [
              -43.240203,
              -22.856784
            ],
            [
              -43.240078,
              -22.856757
            ],
            [
              -43.240067,
              -22.856825
            ],
            [
              -43.239584,
              -22.856726
            ],
            [
              -43.239792,
              -22.855948
            ],
            [
              -43.239769,
              -22.855942
            ],
            [
              -43.239801,
              -22.855653
            ],
            [
              -43.239679,
              -22.85565
            ],
            [
              -43.239681,
              -22.855475
            ],
            [
              -43.239797,
              -22.855494
            ],
            [
              -43.239769,
              -22.855601
            ],
            [
              -43.240362,
              -22.855706
            ]
          ]
        ]
      }
    },
    {
      "type": "Feature",
      "properties": {
        "objectid": 1035,
        "nome": "Parque Maré",
        "complexo": "Maré",
        "bairro": "Maré",
        "appCommunity": "Complexo da Maré"
      },
      "geometry": {
        "type": "Polygon",
        "coordinates": [
          [
            [
              -43.243284,
              -22.85446
            ],
            [
              -43.245194,
              -22.854726
            ],
            [
              -43.245802,
              -22.854826
            ],
            [
              -43.245715,
              -22.855334
            ],
            [
              -43.245986,
              -22.855375
            ],
            [
              -43.245974,
              -22.855443
            ],
            [
              -43.24593,
              -22.855439
            ],
            [
              -43.245834,
              -22.856063
            ],
            [
              -43.246007,
              -22.856089
            ],
            [
              -43.245947,
              -22.856853
            ],
            [
              -43.24534,
              -22.856719
            ],
            [
              -43.245328,
              -22.85695
            ],
            [
              -43.24593,
              -22.85708
            ],
            [
              -43.245928,
              -22.857203
            ],
            [
              -43.24552,
              -22.857264
            ],
            [
              -43.245505,
              -22.857374
            ],
            [
              -43.245386,
              -22.857711
            ],
            [
              -43.245332,
              -22.85771
            ],
            [
              -43.24539,
              -22.857424
            ],
            [
              -43.244417,
              -22.857207
            ],
            [
              -43.243883,
              -22.858359
            ],
            [
              -43.244892,
              -22.858248
            ],
            [
              -43.244946,
              -22.858264
            ],
            [
              -43.245154,
              -22.85823
            ],
            [
              -43.245162,
              -22.858298
            ],
            [
              -43.244932,
              -22.858339
            ],
            [
              -43.244883,
              -22.858426
            ],
            [
              -43.244888,
              -22.858558
            ],
            [
              -43.244762,
              -22.858876
            ],
            [
              -43.244728,
              -22.859081
            ],
            [
              -43.244291,
              -22.858867
            ],
            [
              -43.243672,
              -22.858664
            ],
            [
              -43.241853,
              -22.858443
            ],
            [
              -43.241577,
              -22.858371
            ],
            [
              -43.24156,
              -22.858271
            ],
            [
              -43.241816,
              -22.857164
            ],
            [
              -43.242295,
              -22.857263
            ],
            [
              -43.242629,
              -22.855995
            ],
            [
              -43.242123,
              -22.855858
            ],
            [
              -43.242252,
              -22.855326
            ],
            [
              -43.242738,
              -22.855413
            ],
            [
              -43.242962,
              -22.854764
            ],
            [
              -43.243178,
              -22.854804
            ],
            [
              -43.243284,
              -22.85446
            ]
          ]
        ]
      }
    },
    {
      "type": "Feature",
      "properties": {
        "objectid": 1040,
        "nome": "Timbau",
        "complexo": "Maré",
        "bairro": "Maré",
        "appCommunity": "Complexo da Maré"
      },
      "geometry": {
        "type": "Polygon",
        "coordinates": [
          [
            [
              -43.239433,
              -22.861217
            ],
            [
              -43.23957,
              -22.861528
            ],
            [
              -43.239382,
              -22.861683
            ],
            [
              -43.239443,
              -22.861804
            ],
            [
              -43.239544,
              -22.861847
            ],
            [
              -43.240057,
              -22.8619
            ],
            [
              -43.240459,
              -22.861878
            ],
            [
              -43.240622,
              -22.861895
            ],
            [
              -43.241394,
              -22.862119
            ],
            [
              -43.241563,
              -22.862131
            ],
            [
              -43.241658,
              -22.8622
            ],
            [
              -43.242023,
              -22.862179
            ],
            [
              -43.242282,
              -22.862585
            ],
            [
              -43.242104,
              -22.862687
            ],
            [
              -43.242314,
              -22.863024
            ],
            [
              -43.242724,
              -22.862832
            ],
            [
              -43.242613,
              -22.862648
            ],
            [
              -43.242836,
              -22.862531
            ],
            [
              -43.242876,
              -22.862591
            ],
            [
              -43.243057,
              -22.86249
            ],
            [
              -43.243288,
              -22.862896
            ],
            [
              -43.243557,
              -22.863442
            ],
            [
              -43.243103,
              -22.863541
            ],
            [
              -43.242887,
              -22.863147
            ],
            [
              -43.242787,
              -22.863207
            ],
            [
              -43.242814,
              -22.863265
            ],
            [
              -43.242548,
              -22.863331
            ],
            [
              -43.242589,
              -22.863433
            ],
            [
              -43.242462,
              -22.863477
            ],
            [
              -43.243265,
              -22.865022
            ],
            [
              -43.242453,
              -22.865252
            ],
            [
              -43.242368,
              -22.864757
            ],
            [
              -43.24203,
              -22.864903
            ],
            [
              -43.241957,
              -22.864747
            ],
            [
              -43.241345,
              -22.865024
            ],
            [
              -43.241312,
              -22.864964
            ],
            [
              -43.241052,
              -22.865076
            ],
            [
              -43.240899,
              -22.864901
            ],
            [
              -43.240121,
              -22.864393
            ],
            [
              -43.23953,
              -22.863962
            ],
            [
              -43.239358,
              -22.863813
            ],
            [
              -43.239166,
              -22.863411
            ],
            [
              -43.238875,
              -22.862907
            ],
            [
              -43.238701,
              -22.862709
            ],
            [
              -43.238261,
              -22.86235
            ],
            [
              -43.238022,
              -22.862063
            ],
            [
              -43.238075,
              -22.861958
            ],
            [
              -43.238326,
              -22.861915
            ],
            [
              -43.238538,
              -22.861836
            ],
            [
              -43.238935,
              -22.861326
            ],
            [
              -43.239303,
              -22.861232
            ],
            [
              -43.239433,
              -22.861217
            ]
          ]
        ]
      }
    },
    {
      "type": "Feature",
      "properties": {
        "objectid": 608,
        "nome": "Rocinha",
        "complexo": "Isolada",
        "bairro": "Rocinha",
        "appCommunity": "Rocinha"
      },
      "geometry": {
        "type": "MultiPolygon",
        "coordinates": [
          [
            [
              [
                -43.244999,
                -22.990996
              ],
              [
                -43.245062,
                -22.991021
              ],
              [
                -43.245118,
                -22.990964
              ],
              [
                -43.245049,
                -22.990902
              ],
              [
                -43.245003,
                -22.990926
              ],
              [
                -43.24493,
                -22.990862
              ],
              [
                -43.245026,
                -22.990769
              ],
              [
                -43.245186,
                -22.990929
              ],
              [
                -43.245231,
                -22.990894
              ],
              [
                -43.245278,
                -22.990939
              ],
              [
                -43.245127,
                -22.991081
              ],
              [
                -43.245277,
                -22.991131
              ],
              [
                -43.245281,
                -22.991079
              ],
              [
                -43.245347,
                -22.991078
              ],
              [
                -43.24534,
                -22.991135
              ],
              [
                -43.245549,
                -22.991148
              ],
              [
                -43.245662,
                -22.991077
              ],
              [
                -43.245726,
                -22.991122
              ],
              [
                -43.245803,
                -22.991048
              ],
              [
                -43.245777,
                -22.990974
              ],
              [
                -43.245749,
                -22.990958
              ],
              [
                -43.245641,
                -22.991069
              ],
              [
                -43.245547,
                -22.991107
              ],
              [
                -43.245371,
                -22.990984
              ],
              [
                -43.245626,
                -22.990805
              ],
              [
                -43.245558,
                -22.990764
              ],
              [
                -43.245433,
                -22.990868
              ],
              [
                -43.245359,
                -22.990739
              ],
              [
                -43.245428,
                -22.990694
              ],
              [
                -43.24537,
                -22.990645
              ],
              [
                -43.245279,
                -22.990698
              ],
              [
                -43.245199,
                -22.990617
              ],
              [
                -43.245228,
                -22.990587
              ],
              [
                -43.245198,
                -22.990537
              ],
              [
                -43.245115,
                -22.990601
              ],
              [
                -43.245195,
                -22.990669
              ],
              [
                -43.245132,
                -22.99074
              ],
              [
                -43.245041,
                -22.990667
              ],
              [
                -43.244992,
                -22.990702
              ],
              [
                -43.244931,
                -22.990639
              ],
              [
                -43.244787,
                -22.990795
              ],
              [
                -43.244722,
                -22.990738
              ],
              [
                -43.244825,
                -22.990641
              ],
              [
                -43.244779,
                -22.990591
              ],
              [
                -43.244693,
                -22.99066
              ],
              [
                -43.244657,
                -22.990623
              ],
              [
                -43.244564,
                -22.99071
              ],
              [
                -43.244509,
                -22.99064
              ],
              [
                -43.24459,
                -22.990561
              ],
              [
                -43.244535,
                -22.990511
              ],
              [
                -43.244465,
                -22.990556
              ],
              [
                -43.244416,
                -22.990519
              ],
              [
                -43.244514,
                -22.990454
              ],
              [
                -43.244504,
                -22.99043
              ],
              [
                -43.24453,
                -22.990409
              ],
              [
                -43.244441,
                -22.99033
              ],
              [
                -43.244496,
                -22.99029
              ],
              [
                -43.244626,
                -22.990363
              ],
              [
                -43.244685,
                -22.990297
              ],
              [
                -43.244659,
                -22.990228
              ],
              [
                -43.244512,
                -22.990117
              ],
              [
                -43.244406,
                -22.990228
              ],
              [
                -43.244364,
                -22.990313
              ],
              [
                -43.244246,
                -22.990384
              ],
              [
                -43.244297,
                -22.990428
              ],
              [
                -43.244381,
                -22.990463
              ],
              [
                -43.244352,
                -22.990575
              ],
              [
                -43.24409,
                -22.990392
              ],
              [
                -43.24403,
                -22.990508
              ],
              [
                -43.244066,
                -22.990586
              ],
              [
                -43.24396,
                -22.990648
              ],
              [
                -43.243853,
                -22.990615
              ],
              [
                -43.243775,
                -22.990626
              ],
              [
                -43.243599,
                -22.990717
              ],
              [
                -43.243574,
                -22.990651
              ],
              [
                -43.243705,
                -22.990562
              ],
              [
                -43.243608,
                -22.990356
              ],
              [
                -43.243816,
                -22.990327
              ],
              [
                -43.243775,
                -22.990257
              ],
              [
                -43.243834,
                -22.990213
              ],
              [
                -43.243917,
                -22.990308
              ],
              [
                -43.244024,
                -22.990258
              ],
              [
                -43.244007,
                -22.990205
              ],
              [
                -43.244106,
                -22.990168
              ],
              [
                -43.244009,
                -22.990031
              ],
              [
                -43.243819,
                -22.990103
              ],
              [
                -43.24373,
                -22.990055
              ],
              [
                -43.243134,
                -22.990165
              ],
              [
                -43.243082,
                -22.990011
              ],
              [
                -43.243024,
                -22.990027
              ],
              [
                -43.243016,
                -22.989986
              ],
              [
                -43.243065,
                -22.989961
              ],
              [
                -43.243026,
                -22.989852
              ],
              [
                -43.242979,
                -22.989851
              ],
              [
                -43.242977,
                -22.989767
              ],
              [
                -43.24301,
                -22.989767
              ],
              [
                -43.242999,
                -22.989712
              ],
              [
                -43.242919,
                -22.989772
              ],
              [
                -43.242871,
                -22.989739
              ],
              [
                -43.242926,
                -22.989678
              ],
              [
                -43.24291,
                -22.989618
              ],
              [
                -43.242733,
                -22.989438
              ],
              [
                -43.242694,
                -22.989485
              ],
              [
                -43.242837,
                -22.989607
              ],
              [
                -43.242714,
                -22.989683
              ],
              [
                -43.242681,
                -22.989646
              ],
              [
                -43.24257,
                -22.989747
              ],
              [
                -43.242563,
                -22.989816
              ],
              [
                -43.242062,
                -22.989814
              ],
              [
                -43.241763,
                -22.989682
              ],
              [
                -43.241526,
                -22.98955
              ],
              [
                -43.24127,
                -22.989135
              ],
              [
                -43.24114,
                -22.989169
              ],
              [
                -43.24103,
                -22.989112
              ],
              [
                -43.241004,
                -22.988934
              ],
              [
                -43.24093,
                -22.988878
              ],
              [
                -43.241167,
                -22.988601
              ],
              [
                -43.240999,
                -22.988465
              ],
              [
                -43.240828,
                -22.988234
              ],
              [
                -43.240808,
                -22.988062
              ],
              [
                -43.240872,
                -22.98791
              ],
              [
                -43.241127,
                -22.988096
              ],
              [
                -43.241224,
                -22.987587
              ],
              [
                -43.241252,
                -22.9873
              ],
              [
                -43.241349,
                -22.987242
              ],
              [
                -43.241383,
                -22.9868
              ],
              [
                -43.241411,
                -22.986661
              ],
              [
                -43.241772,
                -22.986597
              ],
              [
                -43.241885,
                -22.9866
              ],
              [
                -43.242208,
                -22.986479
              ],
              [
                -43.242401,
                -22.986309
              ],
              [
                -43.242536,
                -22.986006
              ],
              [
                -43.242658,
                -22.985983
              ],
              [
                -43.242908,
                -22.985701
              ],
              [
                -43.242992,
                -22.985716
              ],
              [
                -43.243169,
                -22.985623
              ],
              [
                -43.243181,
                -22.985728
              ],
              [
                -43.243144,
                -22.985742
              ],
              [
                -43.243222,
                -22.985756
              ],
              [
                -43.243583,
                -22.985751
              ],
              [
                -43.243696,
                -22.985735
              ],
              [
                -43.243871,
                -22.98565
              ],
              [
                -43.244027,
                -22.985544
              ],
              [
                -43.244134,
                -22.985529
              ],
              [
                -43.244443,
                -22.985558
              ],
              [
                -43.244744,
                -22.985343
              ],
              [
                -43.245053,
                -22.985007
              ],
              [
                -43.245283,
                -22.984836
              ],
              [
                -43.24526,
                -22.984754
              ],
              [
                -43.245392,
                -22.984634
              ],
              [
                -43.245885,
                -22.984765
              ],
              [
                -43.246083,
                -22.984706
              ],
              [
                -43.246346,
                -22.984573
              ],
              [
                -43.246441,
                -22.984666
              ],
              [
                -43.245881,
                -22.985091
              ],
              [
                -43.246027,
                -22.985224
              ],
              [
                -43.246287,
                -22.985111
              ],
              [
                -43.246367,
                -22.985231
              ],
              [
                -43.246173,
                -22.985292
              ],
              [
                -43.246182,
                -22.985322
              ],
              [
                -43.246133,
                -22.985351
              ],
              [
                -43.246086,
                -22.98532
              ],
              [
                -43.245911,
                -22.985375
              ],
              [
                -43.245527,
                -22.985677
              ],
              [
                -43.245371,
                -22.985921
              ],
              [
                -43.245503,
                -22.98593
              ],
              [
                -43.245801,
                -22.985698
              ],
              [
                -43.246276,
                -22.985461
              ],
              [
                -43.246327,
                -22.985491
              ],
              [
                -43.246617,
                -22.985324
              ],
              [
                -43.247006,
                -22.985008
              ],
              [
                -43.246964,
                -22.984984
              ],
              [
                -43.247066,
                -22.984902
              ],
              [
                -43.247151,
                -22.984937
              ],
              [
                -43.247297,
                -22.98495
              ],
              [
                -43.247338,
                -22.984874
              ],
              [
                -43.247397,
                -22.984846
              ],
              [
                -43.24753,
                -22.984664
              ],
              [
                -43.2476,
                -22.984677
              ],
              [
                -43.247833,
                -22.984484
              ],
              [
                -43.247756,
                -22.984424
              ],
              [
                -43.247818,
                -22.984356
              ],
              [
                -43.248132,
                -22.984141
              ],
              [
                -43.24835,
                -22.983855
              ],
              [
                -43.24864,
                -22.983777
              ],
              [
                -43.249229,
                -22.983759
              ],
              [
                -43.249505,
                -22.98379
              ],
              [
                -43.249595,
                -22.983764
              ],
              [
                -43.250264,
                -22.983461
              ],
              [
                -43.251189,
                -22.982724
              ],
              [
                -43.25133,
                -22.982827
              ],
              [
                -43.250394,
                -22.983553
              ],
              [
                -43.250448,
                -22.983641
              ],
              [
                -43.250489,
                -22.983621
              ],
              [
                -43.250582,
                -22.983786
              ],
              [
                -43.250613,
                -22.983782
              ],
              [
                -43.250676,
                -22.983613
              ],
              [
                -43.250792,
                -22.983513
              ],
              [
                -43.250929,
                -22.983335
              ],
              [
                -43.251213,
                -22.983411
              ],
              [
                -43.251164,
                -22.983453
              ],
              [
                -43.251262,
                -22.983492
              ],
              [
                -43.251371,
                -22.983453
              ],
              [
                -43.251441,
                -22.983505
              ],
              [
                -43.251635,
                -22.983501
              ],
              [
                -43.251675,
                -22.983627
              ],
              [
                -43.251397,
                -22.983668
              ],
              [
                -43.251245,
                -22.983913
              ],
              [
                -43.251156,
                -22.983788
              ],
              [
                -43.25074,
                -22.984106
              ],
              [
                -43.250812,
                -22.984174
              ],
              [
                -43.250811,
                -22.984245
              ],
              [
                -43.250681,
                -22.984286
              ],
              [
                -43.250658,
                -22.98436
              ],
              [
                -43.250758,
                -22.984408
              ],
              [
                -43.250955,
                -22.984397
              ],
              [
                -43.250953,
                -22.984611
              ],
              [
                -43.250738,
                -22.984632
              ],
              [
                -43.250478,
                -22.984739
              ],
              [
                -43.250433,
                -22.984844
              ],
              [
                -43.250264,
                -22.984752
              ],
              [
                -43.25021,
                -22.984762
              ],
              [
                -43.250179,
                -22.984731
              ],
              [
                -43.250174,
                -22.98469
              ],
              [
                -43.250091,
                -22.984661
              ],
              [
                -43.249939,
                -22.98466
              ],
              [
                -43.249938,
                -22.984719
              ],
              [
                -43.249844,
                -22.984725
              ],
              [
                -43.249843,
                -22.984659
              ],
              [
                -43.249685,
                -22.984657
              ],
              [
                -43.249514,
                -22.984734
              ],
              [
                -43.249485,
                -22.984757
              ],
              [
                -43.249489,
                -22.984792
              ],
              [
                -43.249419,
                -22.984811
              ],
              [
                -43.249463,
                -22.984859
              ],
              [
                -43.249553,
                -22.9848
              ],
              [
                -43.24965,
                -22.984873
              ],
              [
                -43.249563,
                -22.984968
              ],
              [
                -43.24958,
                -22.98496
              ],
              [
                -43.249754,
                -22.98513
              ],
              [
                -43.249868,
                -22.985502
              ],
              [
                -43.249808,
                -22.985573
              ],
              [
                -43.249584,
                -22.98524
              ],
              [
                -43.249369,
                -22.985136
              ],
              [
                -43.249328,
                -22.985013
              ],
              [
                -43.249281,
                -22.984991
              ],
              [
                -43.249131,
                -22.985008
              ],
              [
                -43.24905,
                -22.984966
              ],
              [
                -43.249042,
                -22.984895
              ],
              [
                -43.248886,
                -22.984903
              ],
              [
                -43.248839,
                -22.984965
              ],
              [
                -43.248774,
                -22.984956
              ],
              [
                -43.248783,
                -22.984885
              ],
              [
                -43.24867,
                -22.984865
              ],
              [
                -43.248587,
                -22.984765
              ],
              [
                -43.248618,
                -22.984685
              ],
              [
                -43.248515,
                -22.984663
              ],
              [
                -43.248292,
                -22.984702
              ],
              [
                -43.248059,
                -22.985009
              ],
              [
                -43.247656,
                -22.98526
              ],
              [
                -43.24736,
                -22.985317
              ],
              [
                -43.247042,
                -22.985415
              ],
              [
                -43.246628,
                -22.985705
              ],
              [
                -43.246359,
                -22.985817
              ],
              [
                -43.246225,
                -22.985792
              ],
              [
                -43.246163,
                -22.985941
              ],
              [
                -43.245899,
                -22.986189
              ],
              [
                -43.245627,
                -22.986279
              ],
              [
                -43.245715,
                -22.986414
              ],
              [
                -43.245874,
                -22.986341
              ],
              [
                -43.2461,
                -22.98635
              ],
              [
                -43.2462,
                -22.986626
              ],
              [
                -43.246504,
                -22.986542
              ],
              [
                -43.246921,
                -22.986502
              ],
              [
                -43.247304,
                -22.986507
              ],
              [
                -43.247693,
                -22.986407
              ],
              [
                -43.24824,
                -22.986446
              ],
              [
                -43.248552,
                -22.98631
              ],
              [
                -43.248532,
                -22.986274
              ],
              [
                -43.248752,
                -22.986101
              ],
              [
                -43.249332,
                -22.986093
              ],
              [
                -43.249241,
                -22.986234
              ],
              [
                -43.249339,
                -22.986374
              ],
              [
                -43.249054,
                -22.986366
              ],
              [
                -43.248995,
                -22.986477
              ],
              [
                -43.248992,
                -22.986601
              ],
              [
                -43.248953,
                -22.986673
              ],
              [
                -43.249013,
                -22.986806
              ],
              [
                -43.248902,
                -22.986913
              ],
              [
                -43.249692,
                -22.987106
              ],
              [
                -43.249801,
                -22.98698
              ],
              [
                -43.249733,
                -22.986885
              ],
              [
                -43.249371,
                -22.986794
              ],
              [
                -43.249329,
                -22.986532
              ],
              [
                -43.249984,
                -22.98645
              ],
              [
                -43.250135,
                -22.986356
              ],
              [
                -43.250317,
                -22.986274
              ],
              [
                -43.250426,
                -22.986387
              ],
              [
                -43.250797,
                -22.986146
              ],
              [
                -43.25084,
                -22.986279
              ],
              [
                -43.250992,
                -22.986146
              ],
              [
                -43.251089,
                -22.985951
              ],
              [
                -43.251438,
                -22.986039
              ],
              [
                -43.251651,
                -22.986193
              ],
              [
                -43.251674,
                -22.986196
              ],
              [
                -43.251681,
                -22.986147
              ],
              [
                -43.25174,
                -22.986148
              ],
              [
                -43.251736,
                -22.986204
              ],
              [
                -43.252087,
                -22.986251
              ],
              [
                -43.252115,
                -22.98621
              ],
              [
                -43.252025,
                -22.986147
              ],
              [
                -43.252076,
                -22.986078
              ],
              [
                -43.252172,
                -22.986143
              ],
              [
                -43.252164,
                -22.98626
              ],
              [
                -43.252378,
                -22.986287
              ],
              [
                -43.252564,
                -22.986223
              ],
              [
                -43.252675,
                -22.986283
              ],
              [
                -43.25318,
                -22.986266
              ],
              [
                -43.253461,
                -22.9862
              ],
              [
                -43.253712,
                -22.98624
              ],
              [
                -43.253768,
                -22.98634
              ],
              [
                -43.254177,
                -22.98639
              ],
              [
                -43.254435,
                -22.986591
              ],
              [
                -43.255067,
                -22.986452
              ],
              [
                -43.255536,
                -22.986379
              ],
              [
                -43.255935,
                -22.986399
              ],
              [
                -43.256191,
                -22.986608
              ],
              [
                -43.256229,
                -22.986922
              ],
              [
                -43.256362,
                -22.987319
              ],
              [
                -43.256217,
                -22.987528
              ],
              [
                -43.256009,
                -22.98747
              ],
              [
                -43.25592,
                -22.987406
              ],
              [
                -43.255844,
                -22.987496
              ],
              [
                -43.255717,
                -22.987436
              ],
              [
                -43.255647,
                -22.987295
              ],
              [
                -43.255581,
                -22.987304
              ],
              [
                -43.255543,
                -22.987412
              ],
              [
                -43.255357,
                -22.987598
              ],
              [
                -43.255297,
                -22.987601
              ],
              [
                -43.254775,
                -22.9873
              ],
              [
                -43.254611,
                -22.987471
              ],
              [
                -43.254472,
                -22.987512
              ],
              [
                -43.254227,
                -22.987956
              ],
              [
                -43.254337,
                -22.98799
              ],
              [
                -43.254678,
                -22.987966
              ],
              [
                -43.254789,
                -22.988022
              ],
              [
                -43.254954,
                -22.988002
              ],
              [
                -43.25496,
                -22.98805
              ],
              [
                -43.25485,
                -22.988064
              ],
              [
                -43.255006,
                -22.988166
              ],
              [
                -43.255084,
                -22.988068
              ],
              [
                -43.255185,
                -22.988152
              ],
              [
                -43.255356,
                -22.988244
              ],
              [
                -43.255274,
                -22.988483
              ],
              [
                -43.255401,
                -22.988555
              ],
              [
                -43.25543,
                -22.988624
              ],
              [
                -43.255469,
                -22.988651
              ],
              [
                -43.255414,
                -22.988751
              ],
              [
                -43.255232,
                -22.988876
              ],
              [
                -43.255158,
                -22.988847
              ],
              [
                -43.255018,
                -22.988932
              ],
              [
                -43.254964,
                -22.988999
              ],
              [
                -43.25509,
                -22.989098
              ],
              [
                -43.254914,
                -22.989301
              ],
              [
                -43.254804,
                -22.989199
              ],
              [
                -43.254607,
                -22.989343
              ],
              [
                -43.254637,
                -22.989384
              ],
              [
                -43.254578,
                -22.98942
              ],
              [
                -43.254547,
                -22.989387
              ],
              [
                -43.254064,
                -22.989564
              ],
              [
                -43.253769,
                -22.989867
              ],
              [
                -43.253598,
                -22.98995
              ],
              [
                -43.25369,
                -22.990161
              ],
              [
                -43.253904,
                -22.990075
              ],
              [
                -43.254178,
                -22.990015
              ],
              [
                -43.254186,
                -22.989902
              ],
              [
                -43.254259,
                -22.989891
              ],
              [
                -43.254271,
                -22.990006
              ],
              [
                -43.254362,
                -22.989998
              ],
              [
                -43.254546,
                -22.990086
              ],
              [
                -43.254628,
                -22.99015
              ],
              [
                -43.254693,
                -22.990124
              ],
              [
                -43.254737,
                -22.990176
              ],
              [
                -43.253572,
                -22.990612
              ],
              [
                -43.253585,
                -22.990674
              ],
              [
                -43.253367,
                -22.990731
              ],
              [
                -43.252759,
                -22.99083
              ],
              [
                -43.252686,
                -22.990881
              ],
              [
                -43.252758,
                -22.990915
              ],
              [
                -43.252645,
                -22.990997
              ],
              [
                -43.252571,
                -22.99095
              ],
              [
                -43.252526,
                -22.991001
              ],
              [
                -43.252425,
                -22.990932
              ],
              [
                -43.252381,
                -22.990838
              ],
              [
                -43.251853,
                -22.992104
              ],
              [
                -43.251892,
                -22.992157
              ],
              [
                -43.252074,
                -22.992192
              ],
              [
                -43.25201,
                -22.99235
              ],
              [
                -43.251508,
                -22.99227
              ],
              [
                -43.251277,
                -22.992323
              ],
              [
                -43.250946,
                -22.992127
              ],
              [
                -43.25073,
                -22.99215
              ],
              [
                -43.249636,
                -22.992178
              ],
              [
                -43.249633,
                -22.992234
              ],
              [
                -43.249453,
                -22.992249
              ],
              [
                -43.249005,
                -22.992399
              ],
              [
                -43.248939,
                -22.992353
              ],
              [
                -43.248756,
                -22.992416
              ],
              [
                -43.248653,
                -22.992411
              ],
              [
                -43.248569,
                -22.992479
              ],
              [
                -43.248418,
                -22.99236
              ],
              [
                -43.248387,
                -22.992402
              ],
              [
                -43.248502,
                -22.992509
              ],
              [
                -43.248397,
                -22.992638
              ],
              [
                -43.248227,
                -22.992514
              ],
              [
                -43.248169,
                -22.992527
              ],
              [
                -43.248085,
                -22.992477
              ],
              [
                -43.248014,
                -22.992516
              ],
              [
                -43.247947,
                -22.992491
              ],
              [
                -43.247874,
                -22.992519
              ],
              [
                -43.247778,
                -22.992442
              ],
              [
                -43.247751,
                -22.992363
              ],
              [
                -43.247767,
                -22.992342
              ],
              [
                -43.247707,
                -22.992305
              ],
              [
                -43.247744,
                -22.99226
              ],
              [
                -43.247663,
                -22.992211
              ],
              [
                -43.247695,
                -22.992153
              ],
              [
                -43.247481,
                -22.991987
              ],
              [
                -43.247326,
                -22.992022
              ],
              [
                -43.247076,
                -22.991895
              ],
              [
                -43.246976,
                -22.991795
              ],
              [
                -43.246835,
                -22.991844
              ],
              [
                -43.246791,
                -22.9919
              ],
              [
                -43.246683,
                -22.991792
              ],
              [
                -43.246694,
                -22.991759
              ],
              [
                -43.246622,
                -22.99164
              ],
              [
                -43.246592,
                -22.991647
              ],
              [
                -43.246574,
                -22.991617
              ],
              [
                -43.246545,
                -22.991631
              ],
              [
                -43.246507,
                -22.991594
              ],
              [
                -43.246635,
                -22.991513
              ],
              [
                -43.24655,
                -22.991452
              ],
              [
                -43.246558,
                -22.991413
              ],
              [
                -43.246472,
                -22.991347
              ],
              [
                -43.246355,
                -22.991457
              ],
              [
                -43.2464,
                -22.991508
              ],
              [
                -43.246379,
                -22.991556
              ],
              [
                -43.246327,
                -22.991483
              ],
              [
                -43.246265,
                -22.991541
              ],
              [
                -43.246368,
                -22.991574
              ],
              [
                -43.246448,
                -22.991642
              ],
              [
                -43.246291,
                -22.991847
              ],
              [
                -43.246328,
                -22.991879
              ],
              [
                -43.246286,
                -22.991927
              ],
              [
                -43.246239,
                -22.991886
              ],
              [
                -43.246294,
                -22.991801
              ],
              [
                -43.246216,
                -22.99176
              ],
              [
                -43.246282,
                -22.991679
              ],
              [
                -43.246163,
                -22.991614
              ],
              [
                -43.246108,
                -22.99166
              ],
              [
                -43.246151,
                -22.991707
              ],
              [
                -43.246063,
                -22.991807
              ],
              [
                -43.245959,
                -22.991746
              ],
              [
                -43.245815,
                -22.991514
              ],
              [
                -43.245762,
                -22.991556
              ],
              [
                -43.245597,
                -22.991415
              ],
              [
                -43.245561,
                -22.991442
              ],
              [
                -43.245585,
                -22.991467
              ],
              [
                -43.245537,
                -22.991504
              ],
              [
                -43.245475,
                -22.991453
              ],
              [
                -43.245453,
                -22.991396
              ],
              [
                -43.245367,
                -22.991348
              ],
              [
                -43.245301,
                -22.991436
              ],
              [
                -43.245256,
                -22.991403
              ],
              [
                -43.245293,
                -22.991354
              ],
              [
                -43.245257,
                -22.991332
              ],
              [
                -43.24521,
                -22.991384
              ],
              [
                -43.245203,
                -22.991435
              ],
              [
                -43.245163,
                -22.99149
              ],
              [
                -43.2451,
                -22.991447
              ],
              [
                -43.245131,
                -22.991405
              ],
              [
                -43.245078,
                -22.991345
              ],
              [
                -43.245104,
                -22.991291
              ],
              [
                -43.24507,
                -22.991217
              ],
              [
                -43.245097,
                -22.991167
              ],
              [
                -43.245094,
                -22.991078
              ],
              [
                -43.245046,
                -22.991036
              ],
              [
                -43.244992,
                -22.991071
              ],
              [
                -43.24494,
                -22.99103
              ],
              [
                -43.244999,
                -22.990996
              ]
            ]
          ],
          [
            [
              [
                -43.244753,
                -22.990928
              ],
              [
                -43.244708,
                -22.990945
              ],
              [
                -43.244666,
                -22.990918
              ],
              [
                -43.244714,
                -22.99089
              ],
              [
                -43.244753,
                -22.990928
              ]
            ]
          ]
        ]
      }
    }
  ]
}
