{"type":"FeatureCollection","features":[{"type":"Feature","properties":{"app_name":"Rodo (Santa Cruz)","cod_favela":738,"sabren_names":["Favela do Rodo","Rua Brício de Moraes"]},"geometry":{"type":"MultiPolygon","coordinates":[[[[-43.31010630931272,-22.862942833325686],[-43.31007563896936,-22.862890261397062],[-43.310130529270616,-22.86275732618874],[-43.310197444471825,-22.86266515476232],[-43.31030140090271,-22.862616915325052],[-43.310346429338786,-22.862521608846876],[-43.31055279865478,-22.862549923165016],[-43.310529332977325,-22.862674484735347],[-43.310637902814285,-22.862759812378286],[-43.31077530355362,-22.862793199048156],[-43.31084441609861,-22.862776517813305],[-43.31091291963575,-22.862809173711753],[-43.31089308822291,-22.86289313694055],[-43.311031206721346,-22.862868480750155],[-43.31111565465636,-22.86287808483097],[-43.31113696730264,-22.86292765472298],[-43.311231743945335,-22.862861901233117],[-43.311405961529864,-22.86270410956909],[-43.31158180302006,-22.86266824232566],[-43.311749946630265,-22.86274839647244],[-43.311783032999465,-22.862859044936297],[-43.31180031671148,-22.86298113665831],[-43.31175575530927,-22.863038714955188],[-43.31164977916155,-22.862996954174157],[-43.31145036566144,-22.863166089621107],[-43.31154356415687,-22.863228032517988],[-43.311289905478695,-22.863477864169155],[-43.311386379249086,-22.863528231876675],[-43.311638135978676,-22.86343221673439],[-43.311705815160224,-22.86353162228936],[-43.31143404670648,-22.863726112387255],[-43.311439162177244,-22.86381904892655],[-43.311594534386344,-22.863983709327886],[-43.3114763954705,-22.864100993370496],[-43.311424907646625,-22.86417560244198],[-43.31139639037383,-22.864491990674654],[-43.31141383903114,-22.86454789529727],[-43.31132115537473,-22.864553269152136],[-43.311274001417374,-22.86451100995951],[-43.31119927043178,-22.86447538555142],[-43.311200777268354,-22.864353494190894],[-43.31123950553503,-22.864261023105232],[-43.31109151394985,-22.864070785002905],[-43.31115547694281,-22.86396406927758],[-43.311166558205905,-22.86382776518416],[-43.311164574592745,-22.86373486189387],[-43.31113433225294,-22.863647463626474],[-43.311066475026784,-22.863562569426296],[-43.31095128312938,-22.863506197764718],[-43.31080761831271,-22.86347274379493],[-43.31067021690255,-22.86343935621122],[-43.31058256523177,-22.863435522881396],[-43.31070047560523,-22.863018805020104],[-43.310444462751164,-22.86295223005848],[-43.31025360755691,-22.862935689505917],[-43.31010630931272,-22.862942833325686]]],[[[-43.310073310961634,-22.863495380690328],[-43.30992085250771,-22.863548257657],[-43.30982606215118,-22.86358273636065],[-43.30963254867677,-22.863637712701582],[-43.30950644817771,-22.863660452558584],[-43.30936756366471,-22.863637703581368],[-43.309298110778656,-22.863587266044476],[-43.30927803913306,-22.863551566948047],[-43.309275837259904,-22.86350845199889],[-43.309325769693345,-22.863451951123203],[-43.30940126794895,-22.863442967660262],[-43.30952519412126,-22.86347181330808],[-43.30966459262181,-22.86347963149682],[-43.30972247251888,-22.86346483536492],[-43.30981557330189,-22.863435610973276],[-43.30999020825475,-22.863358889862255],[-43.310073310961634,-22.863495380690328]]]]}},{"type":"Feature","properties":{"app_name":"Três Pontes (Santa Cruz)","cod_favela":696,"sabren_names":["Comunidade Vera Cruz","Nova Brasília - Três Pontes (RA - Santa Cruz)","Três Pontes"]},"geometry":{"type":"MultiPolygon","coordinates":[[[[-43.64201744463994,-22.928975794321985],[-43.64194426488643,-22.928928043338118],[-43.64200432770504,-22.928839481533018],[-43.642046206025014,-22.92871992885344],[-43.64239086910755,-22.92828092343848],[-43.64258194810403,-22.92803588492778],[-43.64308111164011,-22.92842386449293],[-43.64333425616255,-22.928631588047764],[-43.643492537518206,-22.92875404200544],[-43.6435257113391,-22.928816940812453],[-43.64360192416964,-22.928866842174312],[-43.64398461165697,-22.929044078493362],[-43.64395493530764,-22.92916400963861],[-43.643925696672845,-22.929239974324524],[-43.64385014314495,-22.929197859595504],[-43.64382565658895,-22.929244392439397],[-43.64388230410355,-22.929311192025583],[-43.64397411762718,-22.929377069996733],[-43.644058909049015,-22.929405202041355],[-43.64413412049284,-22.929475231809725],[-43.644290071321905,-22.929592181039528],[-43.644253705234675,-22.92965713752588],[-43.64435274377309,-22.92974102399574],[-43.644292322092625,-22.92979785962459],[-43.64418832493569,-22.92971909512289],[-43.64413427967081,-22.929770312305703],[-43.64409587640014,-22.929747621664486],[-43.64412161446329,-22.929707605043347],[-43.64399882403776,-22.9296424099734],[-43.6439486726777,-22.929733835398565],[-43.644165825713436,-22.929866306594764],[-43.64420166882164,-22.929842237835434],[-43.64431056666643,-22.92991455938516],[-43.64438445489894,-22.929829460982187],[-43.64446428637233,-22.9298960970905],[-43.644550382092085,-22.929781367602434],[-43.644578418190065,-22.929799953195385],[-43.64481447874991,-22.929988501472447],[-43.644723763878524,-22.930147345207224],[-43.64469058755186,-22.930202680401653],[-43.64475497780527,-22.930239822303378],[-43.64472981304353,-22.930279753605273],[-43.64466752738972,-22.93025325552148],[-43.64456265531665,-22.930483267709032],[-43.644481329485195,-22.93066018630862],[-43.6443124143458,-22.930573704410467],[-43.64420965466081,-22.93061084141272],[-43.64444819094258,-22.930749515476208],[-43.64443873506007,-22.930791283355184],[-43.64454369339547,-22.930843717528663],[-43.64451242916682,-22.93090422613038],[-43.64432561966693,-22.93081950977506],[-43.64426429542164,-22.930936004126313],[-43.644134068211734,-22.930885355370442],[-43.644187254893644,-22.930756762175953],[-43.644139138507114,-22.930734942326986],[-43.644023636651625,-22.93093821059875],[-43.6441744011415,-22.931012293433067],[-43.644101290888266,-22.931193302000136],[-43.643918443438324,-22.93112333895482],[-43.643812317981975,-22.93131010665226],[-43.643765575381515,-22.931392365870497],[-43.64358267274826,-22.9313203978191],[-43.643491107792926,-22.931521172399254],[-43.643110947042835,-22.93140896591907],[-43.64302753188825,-22.931689037269077],[-43.64250629461342,-22.9315680844381],[-43.64244944830043,-22.931839103428494],[-43.64209776711644,-22.931977174755573],[-43.64207782283591,-22.93227116176977],[-43.64262657114766,-22.932407176064572],[-43.64266232333969,-22.932234138187876],[-43.64290895711602,-22.932268206781774],[-43.64289827440955,-22.932328909946477],[-43.642973007386956,-22.9323576096222],[-43.64296093308441,-22.932431046496344],[-43.64288148903862,-22.932424291613916],[-43.64277258967685,-22.933043100893716],[-43.642887042407125,-22.933049972735738],[-43.642994399601676,-22.933056418047055],[-43.64304768628552,-22.932831002253778],[-43.64314408836768,-22.932831826371523],[-43.643142256567835,-22.93301565916055],[-43.64347646414409,-22.933055285841284],[-43.643512685408005,-22.93283497687722],[-43.6436995582449,-22.932862838133044],[-43.643678412901615,-22.933277630178683],[-43.64305969989444,-22.933226889672024],[-43.64305925514515,-22.93337739451437],[-43.64328020471049,-22.93340029474735],[-43.6432616746527,-22.933552467612728],[-43.643102946592094,-22.93354585787496],[-43.64307816973117,-22.933755759708983],[-43.64295357000778,-22.93373893584963],[-43.64295440755842,-22.933654897192294],[-43.64249491945154,-22.933666726546097],[-43.642481640342915,-22.93386096799565],[-43.64222052320351,-22.933884997874916],[-43.64221106709607,-22.933695815739664],[-43.64247260279449,-22.933629766537578],[-43.64248603895878,-22.933419768740183],[-43.642321796479784,-22.933397352475943],[-43.642379787603076,-22.933160180843256],[-43.64196521293184,-22.933113744346922],[-43.64196077240311,-22.933058195446755],[-43.64153229448759,-22.93294936049376],[-43.64153402366499,-22.932776031750304],[-43.64170582210229,-22.932609412218962],[-43.64192846728755,-22.932654067295566],[-43.64190213306142,-22.932324618619827],[-43.64116397574092,-22.93228843044824],[-43.64141350940355,-22.931197299991464],[-43.6415447530888,-22.93064880268201],[-43.64175909132285,-22.929786524438203],[-43.64201744463994,-22.928975794321985]]],[[[-43.64377712722701,-22.931907487506358],[-43.643884660930645,-22.931929416820303],[-43.64377986857862,-22.932201668711286],[-43.64385348362802,-22.932212803412348],[-43.643812376062606,-22.93235427776328],[-43.643523692993945,-22.93229928321297],[-43.643446887130914,-22.932608543154284],[-43.6433504851947,-22.93260771922799],[-43.64324820317257,-22.93262785644094],[-43.64313983167515,-22.932689963544743],[-43.643158046714184,-22.93256930427072],[-43.643294143918816,-22.93257046761034],[-43.643376360183375,-22.932287518322124],[-43.64331980971091,-22.93227127638953],[-43.64344114431526,-22.932046442008588],[-43.64369585468222,-22.93209589444071],[-43.64377712722701,-22.931907487506358]]]]}},{"type":"Feature","properties":{"app_name":"Cesarão (Santa Cruz)","cod_favela":694,"sabren_names":["Rua 66 (Cesarão)"]},"geometry":{"type":"MultiPolygon","coordinates":[[[[-43.653214500485674,-22.939725767928355],[-43.653336149878776,-22.939719302142063],[-43.65358715971283,-22.939711945091737],[-43.65382503410442,-22.93974333810627],[-43.65399550510463,-22.939848215952697],[-43.65409716978874,-22.939924968586617],[-43.654218754550335,-22.94005880740081],[-43.65431506492242,-22.94015922921133],[-43.65449358837747,-22.940231888972438],[-43.65469808888706,-22.940266825400812],[-43.65489803270819,-22.940244804727904],[-43.65509778904595,-22.940241754349287],[-43.65526179294181,-22.940228915583198],[-43.65543044951523,-22.9402635455153],[-43.655593894259226,-22.94030761808952],[-43.65606308308856,-22.940506060950387],[-43.65636911259186,-22.940631972327562],[-43.656659547055206,-22.940781468554295],[-43.657046852868284,-22.94097447011285],[-43.65720682989286,-22.940008505367988],[-43.657358026397816,-22.939960483843066],[-43.65745226633713,-22.939969601243412],[-43.6574658243856,-22.94003413600292],[-43.6576829719545,-22.9400757525382],[-43.65779149343873,-22.940205416661147],[-43.65786981268973,-22.94008806535521],[-43.657990445007755,-22.940162732511432],[-43.657875680693415,-22.940306007536076],[-43.65783460113628,-22.940372226100003],[-43.65757598730129,-22.940824177046988],[-43.657636955595905,-22.940846280566426],[-43.65772187450062,-22.940660483676524],[-43.65791524729775,-22.940761658484476],[-43.658013642158764,-22.940885505260766],[-43.65799096739884,-22.940914388596667],[-43.65813725392347,-22.941190506055875],[-43.658081722057176,-22.941277103688623],[-43.65818565332956,-22.94134933090671],[-43.65821858481656,-22.941426418322273],[-43.65820176564924,-22.94157453363262],[-43.658150117046006,-22.94161758398607],[-43.658122986913654,-22.941647720299226],[-43.65803217069552,-22.94174679857427],[-43.658049500879805,-22.941760323005518],[-43.65798857736242,-22.9418215571144],[-43.65797599265639,-22.941809688596493],[-43.65794387297589,-22.941843628406374],[-43.65805610415628,-22.941992827883155],[-43.65796017117522,-22.942062104932184],[-43.657819839152396,-22.941909748630643],[-43.657560978804625,-22.94193322894881],[-43.65751899460415,-22.94193656232609],[-43.6574240826919,-22.9418373481745],[-43.657257348360545,-22.94194933850093],[-43.657198833730355,-22.941865204584776],[-43.65739079645855,-22.941796261878434],[-43.65730583820727,-22.941741848199623],[-43.6572343262656,-22.94167443773878],[-43.657000070207985,-22.94188470013749],[-43.65704395323947,-22.941926122764585],[-43.656963485567324,-22.942022345418753],[-43.65685141375177,-22.941928369537592],[-43.65688372032041,-22.94190259716931],[-43.65682893162686,-22.941839659722305],[-43.656700337269406,-22.94191833796317],[-43.65655978317064,-22.941780937147154],[-43.65652782484785,-22.94162055942625],[-43.65646403365012,-22.94154832871671],[-43.656320932621384,-22.94166898994994],[-43.656165956425035,-22.94173040320395],[-43.656084473636255,-22.94162074478317],[-43.656192148035736,-22.9415493257365],[-43.656149633147294,-22.94150982198372],[-43.65647003268176,-22.941201879142533],[-43.65653152762511,-22.941245413621086],[-43.65669437752628,-22.941061978723244],[-43.65666022835497,-22.94102793969965],[-43.65659489935886,-22.94099494902037],[-43.65653258789303,-22.94094335221661],[-43.656496554789626,-22.940991214494865],[-43.656380145992955,-22.940912706440873],[-43.65642194405024,-22.94085173370749],[-43.65631900850643,-22.940766497219975],[-43.65620464607732,-22.940960502195793],[-43.65612445447487,-22.94092130256504],[-43.65607403876052,-22.9410050797083],[-43.65602882134157,-22.940985579189267],[-43.65608191305147,-22.940900507892106],[-43.65599589764249,-22.94087119924458],[-43.65592649175143,-22.940845017142177],[-43.65574615526087,-22.941085823735925],[-43.65568215232689,-22.941035099200356],[-43.65576147626099,-22.940941356665192],[-43.655705535728934,-22.940906371466113],[-43.655744483840735,-22.940831949953647],[-43.655591570198446,-22.9410920818319],[-43.65540501653237,-22.940912198660516],[-43.65547434343242,-22.940771726076488],[-43.6553859483384,-22.94072193365897],[-43.65532037944048,-22.940761250603078],[-43.65535354170822,-22.94081904141765],[-43.65518280476587,-22.941063904463302],[-43.65522503852914,-22.941077038728288],[-43.65521755530187,-22.941151929068607],[-43.65513704776191,-22.94112952626407],[-43.65512270655923,-22.941179890506184],[-43.655170604676194,-22.941264432808975],[-43.65515147062708,-22.941323862263374],[-43.65525347333551,-22.941364306650584],[-43.65525238742128,-22.941474221314735],[-43.6549749829498,-22.94154721680889],[-43.654927836751305,-22.94156658410249],[-43.65488969531558,-22.941538587444956],[-43.65489028131386,-22.941479289817106],[-43.654700128569566,-22.941454525762776],[-43.65475761396923,-22.94112046014137],[-43.65461332631225,-22.9411001202169],[-43.65465597470264,-22.940961881184414],[-43.65471237361435,-22.940737731107117],[-43.654894981518005,-22.940796630854475],[-43.65497410105069,-22.940878157522178],[-43.65513066297766,-22.940979635085124],[-43.65524703276706,-22.940798371914635],[-43.655231143428615,-22.940672804028637],[-43.655180859085085,-22.940645622167782],[-43.65512543997008,-22.9406128666206],[-43.65503800521512,-22.940583449701627],[-43.65511066801911,-22.940493249293738],[-43.6550558956435,-22.94045149994981],[-43.65492738544503,-22.94044452921347],[-43.654911126402375,-22.940496638379177],[-43.654883833107775,-22.940494786726116],[-43.654878994254275,-22.940538607596803],[-43.65478724534482,-22.94052410155249],[-43.654790779330256,-22.940466478111425],[-43.65482972941205,-22.940419720259502],[-43.65469956409883,-22.94039738762351],[-43.65469468235461,-22.94046942066207],[-43.65464272893896,-22.940455239266747],[-43.65461347203404,-22.940545008155063],[-43.65445492968398,-22.9404920437225],[-43.65432625357291,-22.94058146083582],[-43.654266361781424,-22.940687271294536],[-43.654204709044336,-22.94066699866289],[-43.654174890805656,-22.940719512973587],[-43.65414522973337,-22.940789465341453],[-43.654170475168996,-22.940798323760998],[-43.65412510013354,-22.940945599288245],[-43.654582730402936,-22.94089982428798],[-43.6545872557086,-22.940959560842174],[-43.654566939217666,-22.940994063350857],[-43.654544349039845,-22.941060782766446],[-43.65449018294896,-22.940985614502697],[-43.65410445036894,-22.941089143951174],[-43.654224554653226,-22.941104740775025],[-43.65433225424235,-22.941083398957527],[-43.65433754192715,-22.941119274628644],[-43.654393527570484,-22.941115339180136],[-43.65441130941028,-22.941195782386558],[-43.65436993628907,-22.941204990767215],[-43.6543857861355,-22.94127203522143],[-43.65426346171397,-22.941286371736034],[-43.65427112630802,-22.941315202014387],[-43.654266279797184,-22.941371313217562],[-43.65423630984836,-22.941367353311453],[-43.65424479763894,-22.941321207935367],[-43.654178233643954,-22.941390192521798],[-43.65413316558839,-22.94128942670026],[-43.65417404853768,-22.941390157026362],[-43.654074854441454,-22.941492142358896],[-43.6540651848543,-22.94160670958881],[-43.65391145004733,-22.94161331192348],[-43.65391015992003,-22.941743764843096],[-43.6538361512532,-22.9417986263631],[-43.65374648401724,-22.941781223702357],[-43.653747800672114,-22.94164810483857],[-43.65364024870899,-22.941622231224876],[-43.65353265760962,-22.94160051543247],[-43.653620549223504,-22.941343323013403],[-43.65369397721687,-22.941185853987808],[-43.65365969880977,-22.941122661418348],[-43.653672876717685,-22.941048383986455],[-43.65371338436714,-22.941040407603033],[-43.65380748207036,-22.94133569118176],[-43.653814962428925,-22.941442497476263],[-43.65394413851408,-22.941457852663284],[-43.65390005486567,-22.94124168631519],[-43.653870794404945,-22.941020941056017],[-43.65401077406355,-22.940947244279553],[-43.65403150453692,-22.940863788663208],[-43.65390889168225,-22.940838792738063],[-43.653837154164606,-22.940842927663773],[-43.65372462985732,-22.94081168681723],[-43.65384471435475,-22.9405963477864],[-43.65355503386846,-22.94037376336219],[-43.65354409745132,-22.940496490851704],[-43.65365501251256,-22.940549018681136],[-43.65363250373137,-22.940607374327232],[-43.653595260870674,-22.94059033059806],[-43.65353760260159,-22.940569366353774],[-43.65353465733261,-22.94060241749787],[-43.653453778906,-22.94058849063908],[-43.65344626932825,-22.940533266305547],[-43.65335741055884,-22.940515947990352],[-43.65335151416276,-22.94032950487725],[-43.65342405151681,-22.940320394122672],[-43.653423492017765,-22.940208583330577],[-43.6534300187261,-22.9400663450368],[-43.65350166199958,-22.9400716964477],[-43.65351260799874,-22.940000642485362],[-43.65349501206395,-22.939956875164427],[-43.65348803634798,-22.939896085468607],[-43.653360111451605,-22.93988551387359],[-43.65322372049168,-22.93994607496531],[-43.653160535957426,-22.93994869982613],[-43.653167048516494,-22.94005953784086],[-43.65312575982631,-22.940060142964665],[-43.65312790904421,-22.939981106158328],[-43.653037635999894,-22.939977950128036],[-43.65304674658521,-22.939839427785984],[-43.652747760816816,-22.939808213844234],[-43.652711121511835,-22.93986047487368],[-43.65259772352148,-22.939847563943328],[-43.6524864952169,-22.93979437072001],[-43.65250856954255,-22.939678273290045],[-43.652111480517355,-22.939628387370384],[-43.652121614992055,-22.939450171077073],[-43.6529415536865,-22.939484266559642],[-43.65292900962414,-22.93979000186387],[-43.653222982967385,-22.939831771701954],[-43.653214500485674,-22.939725767928355]],[[-43.65731739235282,-22.94054513814548],[-43.65729131963475,-22.94059234880963],[-43.657305556530865,-22.940689293528123],[-43.657317230604576,-22.940804041673196],[-43.65736953878484,-22.940776963539847],[-43.65753953083652,-22.94051811227747],[-43.657586622709715,-22.94046581566368],[-43.657627004401604,-22.940424000548337],[-43.65756940812553,-22.94039391888724],[-43.65761399714187,-22.94032021654985],[-43.6576818571217,-22.940367202184564],[-43.65778106581872,-22.94026447215566],[-43.657670833187105,-22.940125382438122],[-43.65753564989146,-22.940104578494935],[-43.657519696589624,-22.940189568032896],[-43.65735777078179,-22.940164556487],[-43.657350876541614,-22.94026557638151],[-43.65749507601699,-22.940317463759104],[-43.657469317638494,-22.940383140778813],[-43.657403751344056,-22.9404474793688],[-43.657330323137586,-22.940437178738925],[-43.65731739235282,-22.94054513814548]]],[[[-43.65372062034987,-22.94090698851654],[-43.65368523015911,-22.94093727614213],[-43.653648419520806,-22.940902552793954],[-43.653690020446035,-22.940870405845235],[-43.65372062034987,-22.94090698851654]]]]}},{"type":"Feature","properties":{"app_name":"Comunidade do Rola (Santa Cruz)","cod_favela":1144,"sabren_names":["Rollas"]},"geometry":{"type":"Polygon","coordinates":[[[-43.65447748334125,-22.927384539377194],[-43.6526725254319,-22.926237980166967],[-43.65197543302608,-22.92575570329779],[-43.651842546177924,-22.92604311313907],[-43.651721671101534,-22.925980566708652],[-43.6516454009659,-22.925215227258388],[-43.651742274476796,-22.92521302520244],[-43.6517505378751,-22.925018972651642],[-43.65161803436305,-22.92494399904609],[-43.651611749591815,-22.924796981476437],[-43.65195305980549,-22.92475782962269],[-43.6521531586178,-22.924741605794516],[-43.653173232871055,-22.924636753550022],[-43.653524054249715,-22.92460172520327],[-43.65420234992657,-22.924592753443886],[-43.65419114872327,-22.92467000851354],[-43.65387783471393,-22.924686690355706],[-43.65391212002828,-22.924914198155417],[-43.65383374459674,-22.92492320216926],[-43.65381909160379,-22.92482155525626],[-43.65371476430524,-22.92481583683305],[-43.653483765208385,-22.924762685753073],[-43.653431345748196,-22.924845879101305],[-43.65321897169844,-22.92486537378588],[-43.65326542147273,-22.92509754501352],[-43.65340736024566,-22.925092775316536],[-43.6534323295014,-22.92517662501407],[-43.653325305999985,-22.925564037843404],[-43.65338944276905,-22.925600427188613],[-43.65351150311625,-22.925649255014115],[-43.65363959975285,-22.925739953801806],[-43.653584887981296,-22.92585122290629],[-43.653660330977864,-22.925882369345896],[-43.65362146406956,-22.92593907635224],[-43.65389591821259,-22.926112685050693],[-43.654132870690695,-22.92586601641737],[-43.654025712580946,-22.92576639058572],[-43.65408720081108,-22.925715007102767],[-43.65398139374161,-22.92558129410233],[-43.65401146479934,-22.925540330692026],[-43.65422623296124,-22.925768824723743],[-43.6542580398071,-22.92581390462827],[-43.65430227293631,-22.92579926783078],[-43.65433162012342,-22.925831574896872],[-43.65443435749197,-22.925942362477635],[-43.65448335971486,-22.925987049781586],[-43.654416075163695,-22.92603789567153],[-43.65451882160293,-22.926183521582992],[-43.654576155450684,-22.9262556972592],[-43.6544651039724,-22.926398135687226],[-43.654534162519596,-22.92646553177898],[-43.6547240140169,-22.92630474371653],[-43.655105951907636,-22.92610874567164],[-43.655157089987796,-22.92621553627199],[-43.65481346517178,-22.92638912967227],[-43.65489015755185,-22.92646147920291],[-43.65494755167043,-22.926527681642664],[-43.6548369722767,-22.926622330836743],[-43.65498353265209,-22.926802797509982],[-43.65561920729469,-22.926437783643976],[-43.65569577160596,-22.92652207083757],[-43.65563719795505,-22.92657534198348],[-43.65583529498065,-22.926762218840267],[-43.655871317716354,-22.926825886335102],[-43.65580808385449,-22.926905368069846],[-43.655678215910534,-22.9269938809171],[-43.65548698111045,-22.926765243003167],[-43.65501957370487,-22.927071940252254],[-43.65492987443167,-22.92701143865584],[-43.65472074511996,-22.927130345755373],[-43.65490091915922,-22.927302763717563],[-43.6550461607775,-22.927196885411607],[-43.65507430340059,-22.927234409745825],[-43.65495288810739,-22.927352494993386],[-43.65514179782457,-22.927533271569366],[-43.65533079272811,-22.927652826703017],[-43.655267641748985,-22.927705470940648],[-43.65509233781897,-22.927573086460775],[-43.655038665116386,-22.927616292304506],[-43.654598316583595,-22.927199955781386],[-43.65447748334125,-22.927384539377194]]]}},{"type":"Feature","properties":{"app_name":"Comunidade de Antares (Santa Cruz)","cod_favela":1143,"sabren_names":["Comunidade Antares"]},"geometry":{"type":"Polygon","coordinates":[[[-43.658021838881766,-22.92413415975409],[-43.65770650841652,-22.924172260114982],[-43.65770795049246,-22.924025904842882],[-43.65728319383457,-22.92303476064901],[-43.65746226397581,-22.92300259800547],[-43.657383804385915,-22.92271128417376],[-43.65744585576993,-22.92269747088056],[-43.65753381367889,-22.922989746498278],[-43.6575881516236,-22.922979987339495],[-43.657845305346285,-22.923504326437506],[-43.657959487821444,-22.923370872273516],[-43.658047301000764,-22.923459629337167],[-43.65819967298008,-22.923233313092],[-43.65809990992135,-22.92308295761267],[-43.658185530309254,-22.92303349782653],[-43.6582775495069,-22.923120303312604],[-43.658304197170544,-22.923078064591284],[-43.65854179172874,-22.922856040162745],[-43.65876458938721,-22.922975591312486],[-43.65848374010779,-22.923184129227266],[-43.65883160283406,-22.923398261204987],[-43.65939199479237,-22.923189867683426],[-43.65912548726721,-22.92274552871608],[-43.6594430157606,-22.92259288096419],[-43.65947318220846,-22.922700142624386],[-43.659623794761785,-22.922630824270147],[-43.659546345363566,-22.922381859130176],[-43.65962397970919,-22.92235742325889],[-43.65966172090776,-22.92245452302676],[-43.65983630149809,-22.922409397952215],[-43.65985863682921,-22.922499199106714],[-43.659804359261074,-22.92250949424978],[-43.659847959854886,-22.92257971240684],[-43.659889026331854,-22.922666684834574],[-43.659625751342034,-22.922811427141294],[-43.65951496554568,-22.922848710849852],[-43.65957804958926,-22.923073015323144],[-43.65965192816016,-22.923056636629855],[-43.65967827316692,-22.923132133666137],[-43.659599862747086,-22.923150572199738],[-43.659629961594135,-22.923257592112865],[-43.659556670941775,-22.92349594038221],[-43.658021838881766,-22.92413415975409]]]}},{"type":"Feature","properties":{"app_name":"João XXIII (Santa Cruz)","cod_favela":297,"sabren_names":["AM do Rio Itá","Avenida João XXIII, nº 300","Canal do Itá","Estrada do Aterrado do Itaguaí","João XXIII, 300","Rua Doutor Alvarenda"]},"geometry":{"type":"Polygon","coordinates":[[[-43.69200361528129,-22.903865717424814],[-43.69195092257715,-22.90373819931139],[-43.6920066344594,-22.90371561034895],[-43.69208431210938,-22.903841533160456],[-43.69211519365543,-22.903832278582854],[-43.69214896811613,-22.903777652554744],[-43.69209525217177,-22.903704053759288],[-43.692211485119536,-22.903635087322083],[-43.692381624680344,-22.90397953659509],[-43.69283300800971,-22.90374656615815],[-43.69320396566883,-22.904277753030385],[-43.69338500935417,-22.904193935645146],[-43.69370659166477,-22.904206883562857],[-43.69381813111343,-22.904395306616827],[-43.69368348885401,-22.904436890763098],[-43.69348822313256,-22.90460635129798],[-43.693998906151066,-22.90549310831626],[-43.69409923046175,-22.90568875033548],[-43.694148474745134,-22.90566386124577],[-43.69428597185,-22.905893688283847],[-43.69424977946373,-22.905905694995724],[-43.69436327086477,-22.9061717964205],[-43.694449762758815,-22.906176324995055],[-43.69465635849616,-22.906548318204806],[-43.69465748091322,-22.90660256855238],[-43.69466575128644,-22.90662222581154],[-43.69469096751944,-22.90668216371665],[-43.69474757108559,-22.906650942134767],[-43.69477376635069,-22.906713206562664],[-43.69472378808909,-22.906740188818166],[-43.694839622403535,-22.906790623601964],[-43.69495832124515,-22.90708204412582],[-43.695019178127936,-22.90727496433333],[-43.69506787166063,-22.907467894797723],[-43.69520099681264,-22.907766753116597],[-43.695309912039185,-22.908017988664806],[-43.69540981824821,-22.90833727152436],[-43.69553430252842,-22.908678049779514],[-43.69569171349897,-22.9090229151845],[-43.695740240515775,-22.909137099403342],[-43.69585098533164,-22.90949284339927],[-43.695042194902236,-22.909719998551854],[-43.694543789814155,-22.908406507441267],[-43.69413366708696,-22.907341875992838],[-43.69385642471068,-22.906748924631465],[-43.69348408525677,-22.906841452142444],[-43.693306401198896,-22.90637688708183],[-43.69324642428525,-22.906185519804744],[-43.69308548720821,-22.905779543147098],[-43.692815486475276,-22.90505812480728],[-43.69268553976831,-22.905113917759575],[-43.6926554799361,-22.9050487274007],[-43.692513828577816,-22.905104379639663],[-43.69241679051054,-22.904846518578253],[-43.692696744091336,-22.904745044888415],[-43.692643624765516,-22.904612200065227],[-43.69239223041988,-22.904709449672456],[-43.69235597467093,-22.904603137488895],[-43.6922127558211,-22.904276694503306],[-43.692160867962436,-22.90413292293927],[-43.69223579545628,-22.903990196133574],[-43.692143230845275,-22.903916494348817],[-43.69204000258432,-22.90393854949322],[-43.69200361528129,-22.903865717424814]]]}},{"type":"Feature","properties":{"app_name":"Três Pontes (Santa Cruz)","cod_favela":305,"sabren_names":["Cação Vermelho","Três Pontes"]},"geometry":{"type":"MultiPolygon","coordinates":[[[[-43.646405322352905,-22.923926019668126],[-43.64693266839516,-22.923299643824386],[-43.647214117427346,-22.922961229143677],[-43.64712494842552,-22.92288988703295],[-43.647157154140956,-22.92285767235934],[-43.64724447708607,-22.92292472398784],[-43.64727209631167,-22.922891514653262],[-43.6474853779722,-22.922716495847347],[-43.64811923516867,-22.92331452981797],[-43.64837472922759,-22.923565229525586],[-43.64885012772252,-22.924013753696876],[-43.64911040484833,-22.924302728112973],[-43.6493034706124,-22.924605468304225],[-43.64974469911586,-22.92537869410955],[-43.64997828474175,-22.925758247478296],[-43.65017097551636,-22.926099218638768],[-43.65035935993114,-22.926354123531745],[-43.64968627594151,-22.927108313512363],[-43.64963045542863,-22.927167082617462],[-43.65001422704382,-22.92735072542308],[-43.649904298326724,-22.927503375866582],[-43.649488136057535,-22.927316919319676],[-43.649404401739666,-22.92743569007035],[-43.64937143346372,-22.92769794326457],[-43.64998131587423,-22.92777575798636],[-43.64996042909677,-22.92795279454799],[-43.64977857162465,-22.92796306237051],[-43.64978044239331,-22.928095988005786],[-43.64964667578986,-22.9280800823824],[-43.64964290096435,-22.928139121660248],[-43.64935992175099,-22.928121839022896],[-43.649343188830194,-22.928405371873566],[-43.649240142894875,-22.928390157181834],[-43.649233987889744,-22.92849047123914],[-43.64890871682709,-22.928514170827224],[-43.648914324287865,-22.928617306241115],[-43.64875592348271,-22.92860654151302],[-43.648746437372104,-22.9287014343124],[-43.64899297990743,-22.928724303035132],[-43.64899218893343,-22.92880404229352],[-43.648740846186136,-22.92875736199796],[-43.64872973306919,-22.928868525219812],[-43.647328416816364,-22.928651081241856],[-43.64684502980775,-22.928599681255175],[-43.64631396331752,-22.928446481794033],[-43.64627482721104,-22.928586008492072],[-43.64646781029395,-22.928682984273614],[-43.64643287202889,-22.928761775697723],[-43.64642405579941,-22.928785667205492],[-43.64648265324557,-22.92880629411133],[-43.646383859074234,-22.92912148206291],[-43.64632655549885,-22.929112132367333],[-43.64641021317871,-22.92882317910152],[-43.64629422928418,-22.92880135834295],[-43.64632560748047,-22.92873013411276],[-43.64620639814141,-22.92869496845896],[-43.64615647358311,-22.928717560136977],[-43.64605559557637,-22.9290034590594],[-43.64625908891844,-22.929064786978422],[-43.646135010758805,-22.929319571474363],[-43.64654838192687,-22.929260965122346],[-43.64654381465613,-22.9294728988872],[-43.64661108740331,-22.929484241915237],[-43.64660009218003,-22.929552253065378],[-43.646542347112685,-22.929540996684626],[-43.646538805422566,-22.92970536077768],[-43.64639880267061,-22.929734031447023],[-43.64641206348388,-22.9298128545001],[-43.64631658117957,-22.929806321385314],[-43.646308241076326,-22.929752577228353],[-43.64629210851568,-22.929755880755444],[-43.64620272916023,-22.92977418457107],[-43.64607757285538,-22.92990693800982],[-43.646113024025716,-22.929974151253408],[-43.646008694559,-22.930087965634453],[-43.64585467194907,-22.930010181720714],[-43.64580231703498,-22.930086205181397],[-43.64570977996308,-22.930051960293667],[-43.64560435700196,-22.930275688770436],[-43.64569107007396,-22.930376794001127],[-43.64563861987915,-22.930462373987446],[-43.64579685221199,-22.930635779830094],[-43.64573924316023,-22.930721316737994],[-43.64559577623468,-22.930619726390336],[-43.64551896427824,-22.93070469474324],[-43.64543567399423,-22.930634835988887],[-43.64524712871546,-22.93048972319018],[-43.645235373421414,-22.93068924453245],[-43.64517462453058,-22.93078758674023],[-43.6451248046539,-22.930863464492795],[-43.64502976498689,-22.930806107252383],[-43.64502401131109,-22.930787154676185],[-43.64499123901251,-22.930775026168973],[-43.64502825504207,-22.9307279498141],[-43.64508046092665,-22.930760375974693],[-43.645100439325326,-22.93071650585791],[-43.645136844482636,-22.93062565908461],[-43.644950984735196,-22.930518103035535],[-43.64498316346223,-22.930488842077335],[-43.645091013962166,-22.93054587967759],[-43.64512215031414,-22.930510539550355],[-43.645238534403774,-22.930344536621366],[-43.64513054305398,-22.930185617911075],[-43.645146734488065,-22.930114066544924],[-43.644705637665986,-22.929847438247617],[-43.644551901501465,-22.92974098063429],[-43.644531691588604,-22.929697794335187],[-43.644694772472924,-22.92938375180942],[-43.64472332737268,-22.92910679475996],[-43.644724207871725,-22.928953736593503],[-43.644648273629635,-22.92889401700041],[-43.644278398507566,-22.929529198664415],[-43.6440912158843,-22.929369038478992],[-43.6439473709736,-22.929305678525914],[-43.64403277641899,-22.92901964807264],[-43.64368847645019,-22.9288781072952],[-43.64358609732209,-22.92879598379911],[-43.64341778853303,-22.928598594491497],[-43.643100335217774,-22.928352136057853],[-43.64264462745254,-22.927999350037606],[-43.64300034516183,-22.927493681233894],[-43.64317716656221,-22.927373032685562],[-43.64287709800289,-22.92693555006734],[-43.64296345771656,-22.926860998682546],[-43.642829527437215,-22.926772596232706],[-43.642706622738636,-22.926626820699294],[-43.64276291437368,-22.926417599987797],[-43.642890214535726,-22.926442317100463],[-43.64285311210099,-22.926645795137023],[-43.6429409448054,-22.926791269869256],[-43.643024490238034,-22.92672700594206],[-43.64307021076291,-22.926768842545165],[-43.64328825438192,-22.926580614709042],[-43.64355425353953,-22.92681229513472],[-43.64357742121199,-22.926811802151292],[-43.64359559325008,-22.92671499519523],[-43.64369441463173,-22.926727219490655],[-43.64369536390022,-22.92663188658028],[-43.64354736179254,-22.926468125465984],[-43.64359408091448,-22.926439848806154],[-43.64331643022169,-22.926213860057334],[-43.643149443768515,-22.926347064846933],[-43.64307582164606,-22.92629555974191],[-43.643024248668596,-22.926363958971532],[-43.64296058182053,-22.926324510495498],[-43.642889255881094,-22.92623309374286],[-43.64306184574634,-22.926000381895864],[-43.64323314882679,-22.925896701847247],[-43.64339658116039,-22.92606537377885],[-43.64350592528248,-22.92596594268805],[-43.643379050516636,-22.925741993698384],[-43.6432249417341,-22.925810163490105],[-43.64317796919786,-22.925724109407707],[-43.643282818879136,-22.92557213213294],[-43.644063369192615,-22.924547297708127],[-43.64421484198915,-22.92472459495395],[-43.644308185547466,-22.92467759956246],[-43.644671033895264,-22.925004380357812],[-43.644572470208026,-22.92508131773753],[-43.64472544156114,-22.92526423876016],[-43.64485566007419,-22.92514108681597],[-43.64521478553249,-22.924828717433073],[-43.64484272442234,-22.924366726900214],[-43.64461940403998,-22.924512980346208],[-43.644421332277695,-22.92419585239998],[-43.644519975627965,-22.92413456419279],[-43.64460058109765,-22.924073409146583],[-43.64470107132425,-22.924083538076985],[-43.64484567187239,-22.924070434416414],[-43.64511100471477,-22.924369016527166],[-43.64541096814224,-22.924167761642835],[-43.6453815353809,-22.924130586876583],[-43.64546485227428,-22.924057155957303],[-43.645541006852916,-22.924137446822282],[-43.64590293134554,-22.92411768898415],[-43.64603545638097,-22.924281315973538],[-43.64615275061638,-22.924168642395617],[-43.64603878046202,-22.924059097882985],[-43.64607408679683,-22.924035770960216],[-43.646196124435654,-22.924126977500315],[-43.646405322352905,-22.923926019668126]]],[[[-43.64335912424484,-22.926557703444757],[-43.643423592109855,-22.9264806191663],[-43.64355666409716,-22.92658423500583],[-43.6434888133241,-22.926664396453877],[-43.64335912424484,-22.926557703444757]]]]}},{"type":"Feature","properties":{"app_name":"Rodo (Santa Cruz)","cod_favela":534,"sabren_names":["Rodo"]},"geometry":{"type":"Polygon","coordinates":[[[-43.212788499208585,-22.9278788695542],[-43.2126401011417,-22.927769540318724],[-43.212598661490226,-22.92773916304072],[-43.21261867036138,-22.927682686172226],[-43.21273661261072,-22.92769720318083],[-43.21276674693255,-22.92763420021083],[-43.21282061980696,-22.92760507945111],[-43.213009886399206,-22.927781851974263],[-43.21304537258981,-22.92775803722934],[-43.21328672786016,-22.927576986327516],[-43.21340297331063,-22.927793301657363],[-43.21361185078764,-22.92763710673255],[-43.21371933434026,-22.92759867987824],[-43.21380072020145,-22.927374988531174],[-43.21390585048457,-22.927244049677842],[-43.21414916678825,-22.92718072595142],[-43.21433797340953,-22.927137562303614],[-43.21444036566683,-22.927273183907154],[-43.21465559150726,-22.92717651361515],[-43.21472473646376,-22.92734244387786],[-43.21472053698549,-22.92766279266893],[-43.21476807200033,-22.927844994761895],[-43.21477186999823,-22.928099372102665],[-43.21482688216943,-22.92825523336088],[-43.21490881911823,-22.928533611066076],[-43.21492930290545,-22.928603206159323],[-43.214868429247836,-22.928622339782834],[-43.214838797245896,-22.928619113162437],[-43.21483917595862,-22.928692708398096],[-43.21479282948216,-22.92868621349466],[-43.21479381135706,-22.928614214795296],[-43.21466545536676,-22.928600238647782],[-43.21458128922929,-22.92849594110428],[-43.21445740284611,-22.92849614140835],[-43.21445683892953,-22.928539075771347],[-43.214393602665986,-22.92854194858852],[-43.21439548695729,-22.928496241379687],[-43.214354284120326,-22.928496307948013],[-43.21417836692165,-22.928447604351614],[-43.21410436983453,-22.928416908998596],[-43.21416830475675,-22.92852334693905],[-43.214225135714734,-22.928611692793726],[-43.21414053062562,-22.92867047373206],[-43.214095430953826,-22.928572702917126],[-43.213914958681364,-22.92841407156974],[-43.2138736239265,-22.9283653269422],[-43.213737806860635,-22.928365193766027],[-43.21364233208229,-22.928313014172495],[-43.213540551243376,-22.928442710862157],[-43.21338060778923,-22.92834533867457],[-43.213480771833844,-22.928221470206143],[-43.213387423340954,-22.92816306803834],[-43.213223238025485,-22.928174432367758],[-43.21307461494617,-22.92808688061083],[-43.21303835008107,-22.928135407443463],[-43.212923659783065,-22.928029584269236],[-43.21289920222026,-22.927866904425883],[-43.212788499208585,-22.9278788695542]]]}}]}