{"type":"FeatureCollection","features":[{"type":"Feature","properties":{"app_name":"Rollas / Rodo (Santa Cruz)","nome_fonte":"Rollas","fonte":"Prefeitura do Rio / SABREN-IPP"},"geometry":{"type":"Polygon","coordinates":[[[-43.65447748334125,-22.927384539377194],[-43.6526725254319,-22.926237980166967],[-43.65197543302608,-22.92575570329779],[-43.651842546177924,-22.92604311313907],[-43.651721671101534,-22.925980566708652],[-43.6516454009659,-22.925215227258388],[-43.65161803436305,-22.92494399904609],[-43.651611749591815,-22.924796981476437],[-43.65195305980549,-22.92475782962269],[-43.6521531586178,-22.924741605794516],[-43.653173232871055,-22.924636753550022],[-43.653524054249715,-22.92460172520327],[-43.653608295472765,-22.924600610666843],[-43.653619797282815,-22.924767923551556],[-43.65381123879774,-22.924746240363245],[-43.653825853240086,-22.92486846225791],[-43.6535934863436,-22.92488423392016],[-43.653414808053526,-22.924887379874658],[-43.653401902516535,-22.92484858187081],[-43.65321897169844,-22.92486537378588],[-43.653249945630165,-22.92502019200011],[-43.65338831261226,-22.925022333847448],[-43.65340736024566,-22.925092775316536],[-43.6534323295014,-22.92517662501407],[-43.653325305999985,-22.925564037843404],[-43.65338944276905,-22.925600427188613],[-43.65351150311625,-22.925649255014115],[-43.65363959975285,-22.925739953801806],[-43.65359800098945,-22.92582455397427],[-43.653660330977864,-22.925882369345896],[-43.65362146406956,-22.92593907635224],[-43.65389591821259,-22.926112685050693],[-43.654132870690695,-22.92586601641737],[-43.654025712580946,-22.92576639058572],[-43.65408720081108,-22.925715007102767],[-43.65398139374161,-22.92558129410233],[-43.65401146479934,-22.925540330692026],[-43.65406683573534,-22.925599240268273],[-43.65412034953028,-22.925548279590128],[-43.65416773743831,-22.925590633033856],[-43.65411499682077,-22.92565048033224],[-43.65422623296124,-22.925768824723743],[-43.6542580398071,-22.92581390462827],[-43.65430227293631,-22.92579926783078],[-43.65433162012342,-22.925831574896872],[-43.65443435749197,-22.925942362477635],[-43.65448335971486,-22.925987049781586],[-43.654416075163695,-22.92603789567153],[-43.65454955555422,-22.9261648821334],[-43.65461928862355,-22.926237723747278],[-43.6544651039724,-22.926398135687226],[-43.654534162519596,-22.92646553177898],[-43.6547240140169,-22.92630474371653],[-43.655105951907636,-22.92610874567164],[-43.655157089987796,-22.92621553627199],[-43.65481346517178,-22.92638912967227],[-43.65489015755185,-22.92646147920291],[-43.65494755167043,-22.926527681642664],[-43.6548369722767,-22.926622330836743],[-43.65498353265209,-22.926802797509982],[-43.65539881994628,-22.926564333901148],[-43.655359665934796,-22.926498456804847],[-43.65560247952921,-22.926301988162596],[-43.65568689596859,-22.926416905419003],[-43.65569577160596,-22.92652207083757],[-43.65563719795505,-22.92657534198348],[-43.65583529498065,-22.926762218840267],[-43.655871317716354,-22.926825886335102],[-43.65580808385449,-22.926905368069846],[-43.655678215910534,-22.9269938809171],[-43.65548698111045,-22.926765243003167],[-43.65514844951807,-22.926987376385352],[-43.655177650428584,-22.92702555724547],[-43.65504086674753,-22.927117625486318],[-43.65492987443167,-22.92701143865584],[-43.65472074511996,-22.927130345755373],[-43.65490091915922,-22.927302763717563],[-43.6550461607775,-22.927196885411607],[-43.65507430340059,-22.927234409745825],[-43.65505529409534,-22.927252897533535],[-43.65508943729311,-22.927295167422628],[-43.65502090723838,-22.92735518380236],[-43.65510072902602,-22.92742578049936],[-43.65518209157415,-22.92734023516563],[-43.655434273899544,-22.927538146896786],[-43.65533079272811,-22.927652826703017],[-43.655267641748985,-22.927705470940648],[-43.65520313262359,-22.92775760238203],[-43.65508820290912,-22.927675055501517],[-43.65514467489426,-22.92761261036509],[-43.65509233781897,-22.927573086460775],[-43.655038665116386,-22.927616292304506],[-43.654598316583595,-22.927199955781386],[-43.65447748334125,-22.927384539377194]]]}},{"type":"Feature","properties":{"app_name":"Coqueiral (Santa Cruz)","nome_fonte":"Jardim Coqueiral","fonte":"Prefeitura do Rio / SABREN-IPP"},"geometry":{"type":"Polygon","coordinates":[[[-43.663906853894105,-22.911936163329802],[-43.664414747369854,-22.912139314629318],[-43.66432439887636,-22.91233134372531],[-43.664327945387726,-22.912406806445315],[-43.66439564833119,-22.912442633288425],[-43.6643877249189,-22.912475449730202],[-43.664505144557566,-22.912498253415357],[-43.66448476926421,-22.912537591816125],[-43.6645620852107,-22.912567581767654],[-43.66466446870648,-22.9126160845201],[-43.664584811919966,-22.91273794146191],[-43.664683793822036,-22.912774207288727],[-43.66459164387831,-22.91297933106946],[-43.66454286145447,-22.913075507249317],[-43.664562624379194,-22.913114599674767],[-43.66453354765518,-22.913186046208793],[-43.66442417336504,-22.913161706122747],[-43.66437544089199,-22.9131967489553],[-43.664355138900945,-22.913231775251145],[-43.66431974148131,-22.91328439503881],[-43.66421336236384,-22.913240747375646],[-43.6641717128642,-22.913231238825265],[-43.66413173670923,-22.913371615703092],[-43.664211665942105,-22.913406085925136],[-43.66420015915518,-22.913449369901276],[-43.66422262198566,-22.913456503386232],[-43.6643131173523,-22.913482595087054],[-43.664344838907304,-22.91340701801159],[-43.66448531391315,-22.913460445639384],[-43.664411713037076,-22.91368100166428],[-43.66431103679118,-22.91365580344736],[-43.66429658012729,-22.913680142758984],[-43.66420947667151,-22.913648969365667],[-43.66418490967262,-22.91368840613021],[-43.664182956395265,-22.9137033680775],[-43.66427645357252,-22.91374461335475],[-43.664253880613884,-22.91381427292801],[-43.664170637967764,-22.913797727405875],[-43.6641476686128,-22.913973678244215],[-43.66417917162241,-22.91399164918888],[-43.66411864396382,-22.914061255048907],[-43.66409651751249,-22.914128019132605],[-43.66421034988416,-22.914218737506154],[-43.66400012346507,-22.91438665914973],[-43.66407744728446,-22.914443690708325],[-43.66395168761665,-22.914560268719704],[-43.66401899599837,-22.914631469174687],[-43.664109145317454,-22.91461634680679],[-43.664245535337336,-22.914603313982678],[-43.66430765114104,-22.914793098215153],[-43.66432267915367,-22.91484567419629],[-43.664433784126366,-22.9148162146458],[-43.66448583485818,-22.914965364908642],[-43.663763745262465,-22.915071312079792],[-43.6634317230093,-22.91510878935952],[-43.66344500497798,-22.915190943472446],[-43.663208731745904,-22.915225007254225],[-43.66315255977118,-22.915140299188927],[-43.6630005086065,-22.91524290322793],[-43.66283409708349,-22.91534038528904],[-43.662622993414,-22.914949243432417],[-43.662549401993154,-22.914980361538184],[-43.66259958569237,-22.915084685254744],[-43.66254646079562,-22.915116141883935],[-43.662567889425176,-22.91516380259867],[-43.66256451630477,-22.915230632219973],[-43.66204162263409,-22.91526946425528],[-43.66188917216705,-22.91534908779112],[-43.66179318545035,-22.915229209915115],[-43.66163402574894,-22.91527837648584],[-43.66147008592627,-22.915388160269348],[-43.661346312014274,-22.91526751868124],[-43.66133204052387,-22.91515054387811],[-43.66088408068964,-22.914776101883184],[-43.66055997842773,-22.91477995217364],[-43.66047882938272,-22.91464135381221],[-43.660309128671706,-22.914465235478463],[-43.66029401606342,-22.91425865974299],[-43.66093741655117,-22.91393505928595],[-43.66098550586692,-22.91399179523903],[-43.661350448061164,-22.91368340935731],[-43.661442204334435,-22.913753008724697],[-43.66146063082307,-22.913732523607592],[-43.661697945339384,-22.913644705611688],[-43.66172777235302,-22.913632447866657],[-43.66188364050355,-22.913863133135774],[-43.66197011240026,-22.913797007219593],[-43.661952064793375,-22.91374563484083],[-43.661924790935124,-22.913651362178143],[-43.661928350191175,-22.91354791824638],[-43.662080185686214,-22.91348762380838],[-43.66189987163516,-22.913405346819015],[-43.661922128981516,-22.91338264770375],[-43.66200772111523,-22.91331344261788],[-43.66222915617527,-22.913213199513653],[-43.66257339719895,-22.91301535822285],[-43.66252614637875,-22.912958484380354],[-43.66263054778043,-22.912868944118152],[-43.66269231783604,-22.91291509657418],[-43.66269551641086,-22.9128915775502],[-43.66261945729429,-22.91278976360607],[-43.66273932864848,-22.912666509481934],[-43.66280917994973,-22.912601777626914],[-43.66273253890465,-22.91252042855526],[-43.66253676329434,-22.912733090792212],[-43.66258804112795,-22.912790814111826],[-43.66250428753541,-22.91289826310023],[-43.66246159998652,-22.912973201007453],[-43.66240766587654,-22.912913535113436],[-43.66242013882727,-22.912859775285444],[-43.66230983390523,-22.912796714649552],[-43.66239096807647,-22.912677914192546],[-43.66246332222067,-22.912560232854613],[-43.66268011232752,-22.912387505705198],[-43.66258112057159,-22.912288042026184],[-43.662641786751124,-22.912236307360963],[-43.66273528965824,-22.912339723178718],[-43.66283901168786,-22.91224990155872],[-43.66287763806064,-22.91227951873091],[-43.66277750507235,-22.912383633642985],[-43.66281705190937,-22.91242487169487],[-43.662881632477685,-22.912492214710433],[-43.66296727526663,-22.912375893183814],[-43.66289605290851,-22.912336310494005],[-43.662961114433024,-22.912263377085395],[-43.66302338454769,-22.912299684417643],[-43.66307021716452,-22.912236075515136],[-43.66321103116912,-22.91230088806395],[-43.66327535732134,-22.912218516398113],[-43.66334294354671,-22.91223071183445],[-43.66345528194913,-22.91198576848918],[-43.663641375476,-22.912033369468986],[-43.66366395862305,-22.911961672475126],[-43.6637240925456,-22.91197730397658],[-43.66378829472483,-22.911933788654377],[-43.66375915489942,-22.911784204115612],[-43.66400581895021,-22.91174448151652],[-43.663906853894105,-22.911936163329802]]]}},{"type":"Feature","properties":{"app_name":"Coqueiral (Santa Cruz)","nome_fonte":"Beco do Coqueiral","fonte":"Prefeitura do Rio / SABREN-IPP"},"geometry":{"type":"Polygon","coordinates":[[[-43.66319808321752,-22.91039122683494],[-43.663526822018405,-22.910845697177862],[-43.66373529384873,-22.911133531404396],[-43.66352887570445,-22.911255855007877],[-43.663732862498684,-22.911532828676552],[-43.66389350172065,-22.91148020490696],[-43.663982520211476,-22.91167385086606],[-43.66384706409095,-22.911729765507214],[-43.66382418930307,-22.911669802277757],[-43.66365634196048,-22.911739028134832],[-43.66341795997704,-22.911368614336958],[-43.66330748312504,-22.911436499950636],[-43.66326174568939,-22.911466117863387],[-43.66321288798201,-22.911491398613208],[-43.663165783924065,-22.91142385690395],[-43.663061633619186,-22.91147631775063],[-43.66337048988369,-22.911927707424898],[-43.66333038665735,-22.912064998668725],[-43.663224150287526,-22.912247709822783],[-43.66314062068252,-22.912219280022786],[-43.663062197132035,-22.912114995147594],[-43.66294704945021,-22.912218556593622],[-43.66288570082954,-22.91216594010236],[-43.66277858677366,-22.91201547592417],[-43.66262183996952,-22.911861566327712],[-43.662554520278384,-22.911814084610896],[-43.66258076739461,-22.911768470928465],[-43.66239430903276,-22.911680134859115],[-43.662331678838726,-22.911691197063366],[-43.66209520888493,-22.911534127303792],[-43.661997730347416,-22.911477670208622],[-43.66196396766805,-22.91153037729542],[-43.66190244075323,-22.91149599418818],[-43.66193307367119,-22.911440222445865],[-43.661882590415686,-22.911410983859653],[-43.66182518030445,-22.911454021839837],[-43.661763800777116,-22.911423501928784],[-43.66168646976525,-22.911439469846233],[-43.66154061483643,-22.91140177129974],[-43.66176685529482,-22.91111236613396],[-43.66179897396175,-22.911130588371506],[-43.66184383361257,-22.91116686868024],[-43.661797769821725,-22.91125324659262],[-43.66232392998844,-22.911534502880517],[-43.66250086614099,-22.9112639805924],[-43.662569507227175,-22.911303053985925],[-43.66263662399634,-22.911184369237795],[-43.66268963865547,-22.911226495633425],[-43.66277143476063,-22.911110149913423],[-43.662660318512316,-22.91106213425775],[-43.662661289573286,-22.910963153665477],[-43.66271794521255,-22.91099677653524],[-43.66273499621751,-22.910969753266766],[-43.662810125675556,-22.910852280216844],[-43.66288532321404,-22.910734512357156],[-43.66291142948517,-22.910693880272856],[-43.66300970915113,-22.91054020914995],[-43.66319808321752,-22.91039122683494]]]}},{"type":"Feature","properties":{"app_name":"Urucânia (Santa Cruz)","nome_fonte":"Conjunto Maestro Olímpio dos Santos (Urucânia)","fonte":"Prefeitura do Rio / SABREN-IPP"},"geometry":{"type":"Polygon","coordinates":[[[-43.65154378248807,-22.909074078568082],[-43.652267282772684,-22.91008737127596],[-43.653987652528144,-22.91096349809033],[-43.655736034136176,-22.911657827980036],[-43.65773890777995,-22.91178397474463],[-43.65721033767165,-22.91225274859185],[-43.657331276060496,-22.913273057245746],[-43.655453766191684,-22.91769835296986],[-43.653884968628304,-22.917381704007706],[-43.652626458384795,-22.917480241158465],[-43.65158857536407,-22.91778692590812],[-43.65135675929919,-22.916061879554373],[-43.65065811201032,-22.915182272552112],[-43.65047918439574,-22.914731781290048],[-43.6497597706633,-22.908015370713915],[-43.6502899134012,-22.908711534134177],[-43.65154786291832,-22.90866154530859],[-43.65154378248807,-22.909074078568082]]]}},{"type":"Feature","properties":{"app_name":"Comunidade do Aço (Santa Cruz)","nome_fonte":"São Gomário","fonte":"Prefeitura do Rio / SABREN-IPP"},"geometry":{"type":"Polygon","coordinates":[[[-43.65159507164655,-22.927774093704706],[-43.65140675832747,-22.92840774395981],[-43.651296969130755,-22.928379361884275],[-43.651278319673025,-22.928507964019314],[-43.651378316199654,-22.928522067680735],[-43.651362525270464,-22.92859951104846],[-43.651059838093815,-22.929667452696798],[-43.64974879491164,-22.92995824663314],[-43.649746160988556,-22.92937002941146],[-43.64977579338669,-22.92937028236047],[-43.64978305772308,-22.929196889930434],[-43.64978657891852,-22.92911002613366],[-43.64959914869799,-22.929096252492258],[-43.64959756714097,-22.928860029385053],[-43.64987224979696,-22.928855097907736],[-43.64990583703525,-22.929119067877348],[-43.649947567586864,-22.929124700946588],[-43.649954323387604,-22.92929729680768],[-43.65024225616199,-22.929291902085524],[-43.650262103465316,-22.928997973820813],[-43.650528790572494,-22.929000241100645],[-43.65060394019315,-22.928679334399888],[-43.65071339925232,-22.928678350958172],[-43.65071429049671,-22.9286078763912],[-43.65083999569789,-22.928606368011412],[-43.65085085962125,-22.928540265577478],[-43.651020224019234,-22.928537783259422],[-43.651080847667316,-22.928401053384096],[-43.651216190915534,-22.928413967244232],[-43.651297971257804,-22.928297658134007],[-43.65114160828902,-22.928244473707466],[-43.65116644219216,-22.928113861277474],[-43.651316309182626,-22.928136406191193],[-43.65134683334601,-22.928046475115128],[-43.651402081841134,-22.928052928012946],[-43.651425138930826,-22.927967904573652],[-43.65137859847816,-22.92795991890884],[-43.65138881429548,-22.92792349113238],[-43.6514350375939,-22.92793140274859],[-43.6514593778952,-22.92784164671394],[-43.65133248500621,-22.927815754860365],[-43.65134875033917,-22.92774189300162],[-43.65148188438164,-22.92775865163686],[-43.65159507164655,-22.927774093704706]]]}},{"type":"Feature","properties":{"app_name":"Comunidade do Aço (Santa Cruz)","nome_fonte":"Conjunto Vila Paciência","fonte":"Prefeitura do Rio / SABREN-IPP"},"geometry":{"type":"Polygon","coordinates":[[[-43.651018757763325,-22.929757205461964],[-43.65062106528765,-22.932517590081787],[-43.650485381067895,-22.93362058717069],[-43.65041618050315,-22.93390660922419],[-43.65035003090454,-22.934215736942466],[-43.650451396536084,-22.934663818454407],[-43.650627066172454,-22.934907591872154],[-43.65122038210302,-22.93551448577688],[-43.65127076454358,-22.936217106620205],[-43.65035666734397,-22.93672837584851],[-43.6500252847921,-22.936427552605718],[-43.65010100051509,-22.93632743016803],[-43.649928350400465,-22.93602354748538],[-43.649790612979736,-22.935826530122167],[-43.649512353806124,-22.93598494782674],[-43.64925226767878,-22.936128814172967],[-43.648913709477185,-22.93633450911236],[-43.64773803374376,-22.93487131806888],[-43.64833616495145,-22.934356367075342],[-43.64901108815161,-22.933998673505513],[-43.64955291214032,-22.933608112319703],[-43.65016926696582,-22.933183820736],[-43.65029077353988,-22.932153971793635],[-43.649624060317215,-22.93204521352104],[-43.649385659792706,-22.931768282635925],[-43.64915337579239,-22.931470933882498],[-43.64911493634643,-22.931009999379413],[-43.64907745643761,-22.93085675094791],[-43.64911837540167,-22.930547408972053],[-43.64908584958515,-22.930202227094206],[-43.651018757763325,-22.929757205461964]]]}},{"type":"Feature","properties":{"app_name":"João XXIII (Santa Cruz)","nome_fonte":"Avenida João XXIII, nº 300","fonte":"Prefeitura do Rio / SABREN-IPP"},"geometry":{"type":"Polygon","coordinates":[[[-43.69200361528129,-22.903865717424814],[-43.69195092257715,-22.90373819931139],[-43.6920066344594,-22.90371561034895],[-43.69208431210938,-22.903841533160456],[-43.69211519365543,-22.903832278582854],[-43.69214896811613,-22.903777652554744],[-43.69209525217177,-22.903704053759288],[-43.692211485119536,-22.903635087322083],[-43.692381624680344,-22.90397953659509],[-43.69283300800971,-22.90374656615815],[-43.69320396566883,-22.904277753030385],[-43.69338500935417,-22.904193935645146],[-43.69370659166477,-22.904206883562857],[-43.69381813111343,-22.904395306616827],[-43.69368348885401,-22.904436890763098],[-43.69348822313256,-22.90460635129798],[-43.693998906151066,-22.90549310831626],[-43.69407053787576,-22.905490188240833],[-43.694148474745134,-22.90566386124577],[-43.69428597185,-22.905893688283847],[-43.69424977946373,-22.905905694995724],[-43.69436327086477,-22.9061717964205],[-43.694449762758815,-22.906176324995055],[-43.69465635849616,-22.906548318204806],[-43.69465748091322,-22.90660256855238],[-43.69466575128644,-22.90662222581154],[-43.69469096751944,-22.90668216371665],[-43.69474757108559,-22.906650942134767],[-43.69477376635069,-22.906713206562664],[-43.69472378808909,-22.906740188818166],[-43.694839622403535,-22.906790623601964],[-43.69495832124515,-22.90708204412582],[-43.695019178127936,-22.90727496433333],[-43.69506787166063,-22.907467894797723],[-43.69520099681264,-22.907766753116597],[-43.695309912039185,-22.908017988664806],[-43.69540981824821,-22.90833727152436],[-43.69553430252842,-22.908678049779514],[-43.69569171349897,-22.9090229151845],[-43.695740240515775,-22.909137099403342],[-43.69585098533164,-22.90949284339927],[-43.695042194902236,-22.909719998551854],[-43.694543789814155,-22.908406507441267],[-43.69413366708696,-22.907341875992838],[-43.69385642471068,-22.906748924631465],[-43.69348408525677,-22.906841452142444],[-43.693306401198896,-22.90637688708183],[-43.69324642428525,-22.906185519804744],[-43.69308548720821,-22.905779543147098],[-43.692815486475276,-22.90505812480728],[-43.69268553976831,-22.905113917759575],[-43.6926554799361,-22.9050487274007],[-43.692513828577816,-22.905104379639663],[-43.69241679051054,-22.904846518578253],[-43.692696744091336,-22.904745044888415],[-43.692643624765516,-22.904612200065227],[-43.69239223041988,-22.904709449672456],[-43.69235597467093,-22.904603137488895],[-43.6922127558211,-22.904276694503306],[-43.692160867962436,-22.90413292293927],[-43.69223579545628,-22.903990196133574],[-43.692143230845275,-22.903916494348817],[-43.69204000258432,-22.90393854949322],[-43.69200361528129,-22.903865717424814]]]}}]}